Company Name,Address,City,State,Contact Person,Phone No,Mob No,Service Detail,Supplier or Booking,LCV or HCV,Email Id,Website,Vehicle Type,Segment
A One Logistics,"A-11, Mandir Moholla, Samaypur, Delhi- 42",Delhi,Delhi,"V P, Mishra",,"9*6**42*6* ,  9*12*709**","Full Load Services For Gujarat, Maharashtra & M.P., Jharkhand","Supplier, Booking","HCV, LCV",*onelogi*tic@gm*il.com,,10 Wheeler,"Foods, Grains,  Chemical"
Shree Laxmi Road Carrier India,"154/3 , Firni Road , Poothkhurd , Delhi",Delhi,Delhi,S.N. kausik,,"9*1100*990,  9*1190*990",Full Load Booking For All Over India,"Supplier, Booking",HCV,*hree.lrc89@gm*il.com,,"10 Wheeler,  12 Wheeler","All Type Material,  Industrial Goods"
A. T.O. (I) Ltd.,"2043/ 6, Chuna Mandi, Pahar Ganj, New Delhi - 55",Delhi,Delhi,S.K. Singh,"011 - 2***7710,  2***7790,  2***67*9,  2**6201*,  2**62296","9711*1*1*0,  **00200***",Full Load Service For All Over India,Booking,"HCV, LCV",delhi@*toonline.co.in,www.atoonline.com,"Trailer,  10 Wheeler","All Type Material,  Industrial Goods"
A.B.C. TRANSPORT CO. PVT. LTD.,"6, Rani Jhansi Road, Delhi",Delhi,Delhi,"Indervir Singh, Ashok Gaur","011 - 2*67*2**,  2*67*1*2",,"Parcel Booking For Delhi-Mumbai-Delhi, Special In Export Consignment, Kamla Market",Booking,HCV,,,,
A.B.S. Roadlines Â®,"C- 27 Dawarkapuri, Vijay Encalve, Palam Road, Delhi-41",Delhi,Delhi,"Bhim Sain Sharma, Narinder Sharma",011 - 2*0**67*,"9*12**2*24,  9*6*07979*",All Over India,Booking,,*b*ro*dline*@gm*il.com,,"10 Wheeler,  12 Wheeler",All Type Material
A.D. Roadlines (Regd.),"4763 - 64 / Roshanara Road, Delhi-07",Delhi,Delhi,AK. Mathur,"011 - 2**207*4 ,  2**227**","9*1*6926*9,  9*1*6926**",All Over India,Booking,"HCV, LCV",*dro*dline*delhi@gm*il.com,,"Trailer,  Container,  10 Wheeler,  12 Wheeler","Industrial Goods,  Machinery"
A.J. Roadlines / Amar Jyoti Transport,"29, 2nd Floor, Khanna Market, Tis Hazari, Delhi",Delhi,Delhi,Anil Sharma,"011 - *192299**,  *29*21**",9*11609912,"Daily Services : Delhi To West Bengal, Bihar",Booking,"HCV, LCV",,,10 Wheeler,Parcel Services
A.K. Transport Service,"A-6, Main Rohtak Road , Swarn Park Bus Stand, Mundka, Delhi",Delhi,Delhi,Manoj Kumar,,"9*91**0946 ,  996**0**42",All Over India,Supplier,"HCV, LCV",*ktr*n*port6@gm*il.com,,"Trailer,  Container",Industrial Goods
A.K. Transport Services,"E-12, Chand Bagh Colony, Main Wazirabad Road, Opp., Bhajan Pura Petrol Pump, Delhi",Delhi,Delhi,Anil,,"9*11*406** ,  9*11*40**1","Special For Delhi, U.P., H.R., & Raj., Uttaranchal And All Over India",Supplier,LCV,,,Mini Truck,Industrial Goods
A.M. Freight Carrier,"AW-487. Sanjay Gandhi, Transport Nagar, New Delhi - 42",Delhi,Delhi,"Shukla Ji, Vishnu, Ashok",,"9*1*200*1*,  9*10414114,  742*14119*",Full Truck-Load Avilable For All Over Maharashtra,Supplier,HCV,,,"10 Wheeler,  12 Wheeler",All Type Material
A.M. Transport Pvt. Ltd.,"Shop No - 02, 1st Floor, Sandeep Complex, Panchum Nagar, Opp. Mother Dairy, Delh.",Delhi,Delhi,Abhishak Aggarwal,"011 - 224**246 ,  224**247","9**10**4**,  9**4****19",Full Load Booking For All Over India,"Supplier, Booking","HCV, LCV",,,,
A.P. Road Lines Regd. / Packers & Movers,"W-23, Bhagat Singh Gali, Babarpur, Sahadara, Delhi",Delhi,Delhi,Parveen Kuimar,0120 - 2620270,"99**27*747,  9**0102640,  97162***72,  99***2*40*","Daily Services For Lucknow, Kanpur, Banaras, Patna, Ranchi, Ruderpur, Orissa, Kolkatta","Supplier, Booking","HCV, LCV",*pro*dline*2122@y*hoo.in,www.aproadline.com,19 Ft. Canter,Industrial Goods
A.R. Roadlines,"A-89, Ramgarh Colony, opp. G.T.K. Bus Depot, Delhi",Delhi,Delhi,"Roshan Lal , Heera, Sanjay","011 - 6*1*4117,  276***17","9*1102*96*,  9*11*2*277,  9*1***96**,  9*1102*96*","U.P., Uttaranchal, Bihar, Jharkhand, Rajasthan, Gujarat, M.P., Bengal, Nepal",Supplier,LCV,,,"1109,  407,  Canter",All Type Material
A.R. Roadlines (Modasa),"Opp. Radha Karishna Mandir, Old Delhi, Palam Gurgaon Road, Delhi",Delhi,Delhi,Abdul Razak,,"9*7**79**9,  9*1**6499*,  9*1*019199","Daily Service For : Mumbai, Rajasthan & Gujarat",Supplier,HCV,,,"10 Wheeler,  12 Wheeler",All Type Material
A.S. Carrier,"7th Mile Stone, U.P. Border, P.O. Chikamberpur",Delhi,Delhi,"Daljeet Singh, Narendera Singh",,"9**0*1*912,  9*100*6*26,  9*10*1*912","Full Truck Available All Over Bihar, Jharkhand",Supplier,,,,"10 Wheeler,  12 Wheeler",Parcel Services
A.S. Transport Co.,"H.S. Bajwa Compound, U.P. -Border, Ghaziabad",Delhi,Delhi,"Anil Kumar, Suresh",,"9*91*****4,  9*19062***","Daily Service U.P. Bihar, Bengal, Assam",Supplier,HCV,,,"10 Wheeler,  12 Wheeler,  18 Wheeler",Parcel Services
A.S. Transport (P) Ltd.,"A-324, Surya Nagar, 1st Floor, Ghaziabad",Delhi,Delhi,"J.D. Jaiswal , Manoj Kumr Dubey",0120 - 2641090,"9*99*12*00,  097117*0*97",All Over India,Booking,HCV,**tdelhi@**t.in,,"Trailer,  Container,  10 Wheeler,  12 Wheeler",All Type Material
A.S. Transport Co.,"Opp. Delhi Tal Tax, U.P. Border, P.O .. Chikamberpur",Delhi,Delhi,Rajbeer Singh,"011 - 22**2**7,  *2906010",9*11622**7,"Full Truck Available For Delhi, U.P., Bihar, Assam & Bhutan",Supplier,HCV,,,10 Wheeler,"All Type Material,  Parcel Services"
Aadinath Transport Corporation,"8749/1,3rd Floor, Multani Dhanda ,Pahar Ganj ,New Delhi -55",Delhi,Delhi,Vijender Kumar,,"9*100*1**1,  9212672222",All Over India,Booking,"HCV, LCV",**din*thtr*n*portcorpor*tion@gm*il.com,,"Trailer,  Container",Industrial Goods
Aakash Deep Freight Carrier,"263, Kamla Market, New Delhi",Delhi,Delhi,Kapil Dhingra,011 - 2*2*1*1*,9*71*44799,Daily All Over U.P. ( Spl : Ghaziabad. & Noida ),Booking,"HCV, LCV",**k**hdeepfreightc*rrier1958@gm*il.com,,"Container,  1109, 407, 709, Bolero",Parcel Service
Aakash Road Carriers / Aakash Packers & Movers,"A-1, Shyam Enclave, 7th Mile Stone, Opp. Giani Gurudwara",Delhi,Delhi,Ved Prakash Tiwari,,"9*6**7**10,  9*124*6006 ,  9*60**7266","Daily Services For : Rajasthan, Gujarat, Haryana","Supplier, Booking","HCV, LCV",**k**hp*cker*mover*@gm*il.com; tiw*rivedpr*k**h08@gm*il.com,,"10 Wheeler,  12 Wheeler","Industrial Goods,  Steel,  House Hold Goods"
Aakash Tempo Service,"2nd Floor, Madangir, New Delhi",Delhi,Delhi,"Krishan, Vinod",,"9*10644622,  9*106446**","Delhi, U.P., Haryana, Punjab",Supplier,LCV,,,"4 Wheeler,  6 Wheeler",Parcel Services
Aar-Tee Transport Company Pvt. Ltd.,"5810, Gali No.8, Block 4, 3rd Floor, Dev Nagar, Karol Bagh, New Delhi-05",Delhi,Delhi,Rakumar Shrama,"011 - 2*74**91,  2**26***",9*124**796,Full & Part Load Booking For All Over India,Booking,"HCV, LCV",,,"Trailer,  Container,  10 Wheeler,  12 Wheeler","Industrial Goods,  Machinery"
Aarti Motor & Tempo Transport.,"M-22A, Sham Nagar , P.O., Tilak Nagar, New Delhi-1.",Delhi,Delhi,Dinesh Mehta,,"92116**402,  9*101**129","All Over India And Special For : Bangalore, Chennai",Supplier,LCV,,,"1109,  407 Ton",All Type Material
Aarya Transport Corporation (R),"18, Apsara Complex, U.P. Border, P.O. Chikamberpur, Ghaziabad, (U.P.)-201006",Delhi,Delhi,R. N. Sharma,"0120 - 4126070,  2624022","9*1*746070,  9971964217,  99**421060,  9*1*746207","Supplier For : Chennai, Banglore, Pondicherry, Cochin, All Over South India And Booking For All Over India","Supplier, Booking","HCV, LCV",**ry*tr*n*port_20088@y*hoo.com,,"Trailer,  Container",All Type Material
ABC INDIA LIMITED,"BG-130, Sanjay Gandhi Transport Nagar, Delhi",Delhi,Delhi,"Rahul Singh, Ranjeet Singh","011 - 27***97*,  27**244*","9*11269**6,  9*10961010","Daily Parcel Service Assam , Bhutan, Manipur, Mizoram, Nagaland & Sikkim, All Over India",Booking,"HCV, LCV",r*njeet.beniw*l@*bcindi*.com,www.abcindia.com,"Trailer,  Container,  10 Wheeler,  12 Wheeler","Industrial Goods,  Machinery,  Heavy"
ABC LOGISTICS,"25, Rani Jhansi Road, 3rd Floor, Motia khan, N. Delhi",Delhi,Delhi,Tanmit Singh,011 - *2946600,"9*12220970,  9*1*1229*2",Full Truck Load Available For All Over India,"Supplier, Booking","HCV, LCV",*bclogi*ticpune@y*hoo.in,,"Trailer,  Container,  10 Wheeler,  12 Wheeler",Industrial Goods
ABC Roadways,"9524, Gali No. 13, Multani Dhanda, Paharganj",Delhi,Delhi,"Sunil, Sikander","011 - 2*6222*2,  2*6222*6,  2*62766*,  2*6222**",9*1**122*2,"All Over Rajkot, Mumbai, Pune",Booking,HCV,k*u*tubh.BR*TU1987@gm*il.com,,"10 Wheeler,  12 Wheeler","Industrial Goods,  Food,  Export Goods"
Abhishek Freight Carrier (R),"31-X/17, Gali No.2, Main New Rohtak Road, Anand Parvat Industrial Area, New Delhi-5",Delhi,Delhi,"Sandeep Sharma, R. V. Sharma, T .P. Sharma","011 - 2*76**61,  2*761*62","9*11*09*44,  9*101*674*,  9*10*4422*","Supplier For Dehradun, Haldwani, Uttranchal ,U.P. And Booking For All Over India","Supplier, Booking","HCV, LCV",*bhi*hekfc*rrier@gm*il.com,,"Trailer,  Container,  10 Wheeler,  12 Wheeler","Industrial Goods,  Commercial Products"
Abhishek Good Carrier (Regd.),"F-24, Dwarka Puri, Naveen Shahdara, Delhi-110032",Delhi,Delhi,R.B. Singh,"011 - 22*211**,  22*2194*","9*10224662,  9*71*02*9*,  **261**7*1","Daily Service : Agra, Gwalior, Indore, Bhopal, & All Over M.P And All Over India","Supplier, Booking",LCV,,,"1109,  407 Ton",Industrial Goods
Abhishek Roadlines,"Near Apsara Complex, Gali No.2, P.O. Chikamberpur, Ghaziabad",Delhi,Delhi,Vinod Kumar,0120 - 2622741,"9*119****6 ,  9*119****6",All Over India,Booking,HCV,,,,
Vansh Roadlines,"6 Mile Stone U.P.- Border, Ghaziabad",Delhi,Delhi,Rakesh,,"9*116*4*6*,  9*116*4**7","Truck Available For Haryana, Rajasthan , Punjab",Booking,HCV,,,,
Abohar Bhadra Road Carrier,"Shop No-03, Alipur, New Delhi -36",Delhi,Delhi,Bajrang Singh,011 - 272011*4,9*109711*4,"Full Truck Available All Over Haryana, Punjab, Rajasthan",Supplier,HCV,,,"10 Wheeler,  12 Wheeler",All Type Material
Abohar Bhadra Roadways,"B.G. 260, Sanjay Gandhi, Transport Nagar, Delhi -42",Delhi,Delhi,Pritam Singh,"011 - 27**6*62,  4*7*11*4","9*10***277,  9*102**277","Haryana, Punjab, Himachal, J & K , Rajasthan ,U.P., M.P., Gujarat , Maharashtra",Supplier,LCV,,,"1109,  407 Ton",All Type Material
ABS (South) Transport Co.,"7483, Bansal Apartment, Tel Mill Marg, Pahadganj, Delhi",Delhi,Delhi,Amir Chand,"011 - 2**4*7**,  2*620694",9*1*4***94,"All Over India, Specialist In Household And Andmar & Nikobar","Supplier, Booking","HCV, LCV",,,"Trailer,  Container,  ODC Cargo,  10 Wheeler,  12 Wheeler","Industrial Goods,  House Hold Goods,  Car"
AC Goods Transport Pvt. Ltd.,"22 Gali No.1, Chunna Mandi, Pahadgunj, New Delhi - 55",Delhi,Delhi,C.R. Kaushik,011 - 2****009,9*11972101,All Over India,Booking,"HCV, LCV",,,Trailer,All Type Material
ACM Roadways India (R),"A-1/1507-8, New Subzi Mandi, Azadpur, Delhi-33",Delhi,Delhi,Mr.Rakesh Mehta,011 - 27**1729,9*11****41,"Full Truck For U.P, Bihar, Bengal, Orissa, Assam Cg","Supplier, Booking",HCV,,,"Truck,  10 Wheeler,  6 Wheeler",All Type Material
Adarsh Roadlines. Pvt. Ltd.,"Room No. 512, Agarwal Cyber Plaza 1, Netaji Subhash Place, Pritampura, New Delhi -34",Delhi,Delhi,"Neeraj Tripathi, S.N. Sharma",,"96*01*4760,  96*01*4760",All Over India,Booking,"HCV, LCV",delhi@*d*r*hrpl.com,www.adarshroadlines.com,"Trailer,  Container,  10 Wheeler,  12 Wheeler",Contract With Company
Adhunik Freight Carriers Pvt. Ltd.,"M-154 , Gali No. 11, Shastri Nagar, Delhi - 52",Delhi,Delhi,"Sajjan Sharma , J. M. Kaushik , Dharmbir Sharma","011 - *2*22499 ,  2*640910","9*1267*4*9 ,  9*124*2212","Full Truck Load Accepted For All Over India, Special For Calcutta & Bangladesh",Booking,"HCV, LCV",*dhunikdlh@gm*il.com,,"Container,  10 Wheeler,  6 Wheleers",All Type Material
Adish Goods Transport Co.,"G-21, Vardman City Centre, Shindora kala Delhi-52",Delhi,Delhi,Avinash Jain,"011 - 2*6**71* ,  2*6*4*0*",9*10024960,All Over India,Supplier,"HCV, LCV",,,"1109,  407 Ton",All Type Material
Adishakti Transport Company,"F-8, Roshanara Plaza Road, Delhi - 7",Delhi,Delhi,Govind Khangawal,011 - *2*9*12*,"9*1*704*14 ,  9*11704*14,  96*4*74*14",Full Load Booking All Over India,Booking,"HCV, LCV",*tclogi*tic@gm*il.com,www.adishaktitransportcompany.com,"Trailer,  Container","Industrial Goods,  Machinery"
ADR India Pvt. ltd. (Logistic),"167, Amritpuri B , Chaman Plaza, Ground Floor, East Of Kailash, New Delhi - 65",Delhi,Delhi,Sushil Agarwal,011 - *262112*,9*111**261,Full Load Booking All Over India,Booking,"HCV, LCV",*u*hil*g*rw*l1961@y*hoo.com,,"Trailer,  Container",Industrial Goods
Advance Roadways,"C- 19 / A, Vishwakarma Colony, M. B. Road, New Delhi",Delhi,Delhi,D.R. Yadav,,"9*11007*21,  9212007*21,  9*1*00*22*,  9*1229*044",All Over India,"Supplier, Booking",HCV,*dv*ncer*odw*y*@gm*il.com,,,
Advance Transport Service,"43/B, Plaza, Sidharth Insten, New Delhi- 44",Delhi,Delhi,N.K. Sethi,011 - 26*4072*,9**0*02*77,All Over India,Booking,"HCV, LCV",*dv*ncetr*n*port@hotm*il.com,,Trailer,Industrial Goods
Afferia Goods Transport Co.,"Plot No. 1230, TIkkri Border, PVC Market Road, Delhi",Delhi,Delhi,Sanjay Yadav,,"*010297791,  921***21*4,  9*1**47791","Daily Services : Jaipur, Bhiwadi, Jaipur, Jodhpur, Kota, Udypur, Ajmer All Over Rajasthan",Booking,LCV,,,"1109,  407 Ton",All Type Material
Aganpal Goods Carrier,"3D-16, Budh Vihar, Near Sibbal Cinema, Badarpur, New Delhi",Delhi,Delhi,Om Parkash,"011 - 269972*2 / *4,  6*4*74*2,  269972*4","9*11107117,  9*11107117",All Over Calcutta,Supplier,LCV,,,"1109,  407,  Canter",House Hold Goods
Agardoot Roadways / Shivam Roadline,"26A, Shayam Enclave, U.P., Border, P.O., Chikamberpur",Delhi,Delhi,"Mahavir Parsad Goyal, Amit Goyal",,"9*102***0*,  9*102***0*","Full Truck Load Booking All Over Assam, Bengal","Supplier, Booking",,*grdhootro*dw*y*@gm*il.com,,Container,All Type Material
Agarwal Transoport Organisation,"5, Transport Center, Rohtak Road, Punjabi Bagh, Delhi",Delhi,Delhi,Baluram,"011 - 2**1*0*0 ,  2**1*0*2 ,  2**1*0*1",9*110712**,Full Load Booking For All Over India,Booking,HCV,*g*rw*lr*n*portorg@rediffm*il.com,,,
Agarwal Transport Co.,"7th Mile Stone, Giani Border, Opp., Bharat Dharam Kanta, Chikamberpur, Ghaziabad",Delhi,Delhi,Kamal Aggrawal,0120 - 4124672,"9*10092000 ,  9*11*2*261",Full Load Booking All Over India,Booking,"HCV, LCV",,,10 Wheeler,"Food,  Sugar"
Agarwal Transport Corporation,"7530, Tel Mill, Ram Nagar, Paharganj, New Delhi - 55",Delhi,Delhi,Pandey,011 - 6*644466,"9971166*77 ,  9**0017*2*","Full Load Booking Special For Mumbai, Calcutta, Kanpur, Varanasi, All Over India",Booking,"HCV, LCV",,,ODC Cargo,All Type Material
Aggarwal Carrying Corporation,"8314/5, Kohli Complex, Multani Dhaba, Paharganj, New Delhi -55",Delhi,Delhi,Sandeep Agarwal,011 - 2**2*670,"9*11*60104,  99990***6*",Full Load Booking For All Over India,Booking,"HCV, LCV",,,,
Aggarwal Carrying Corporation,"Shop No-18, Gali No-1, Bhalswa, New Delhi",Delhi,Delhi,Krishna,"011 - 2*910106 ,  2*266994",9*124*7*27,"Khanna Market, Booking , Daily Parcel Service: Delhi, Agra, Kanpur, Lucknow, Varansi",Booking,"HCV, LCV",,,,
Aggarwal Goods Carrier,"841, S.P. Mukherjee Marg, Behind Cloth Market, Delhi-6",Delhi,Delhi,S.K. Aggarwal,011 - 2*9*6*02,9*11406460,"Parcel & Full Load Services For Delhi, Panipat",Supplier,LCV,,,"10 Wheeler,  6 Wheleers",Cloth Materials
Aggarwal Goods Forwarding Agency (Regd.) / Goods Transport Agency (Regd.),"215, Chandu Compound, Near Mahavir Dharam Kanta, Chikamberpur, Ghaziabad",Delhi,Delhi,R.S. Khushik,0120 - 2627227,9*6*7**2*7,All Over U.P.,Booking,"HCV, LCV",,,"1109,  407 Ton",Parcel Services
Aggarwal Relocation Pvt. Ltd.,"L-242, 1st Floor, Street No.9, Rangpuri Road, Mahipalpur, New Delhi -37",Delhi,Delhi,D.K. Aggarwal,"011 - 267**6*0,  267**4**","9*99990914,  9*1***74*4",Service For All Over India,Booking,"HCV, LCV",,www.agarwalrelocation.co.in,"Tempo,  Container,  10 Wheeler","House Hold Goods,  Commercial Product"
Aggarwal Tempo Transport Service,"WZ-101/51, Janakpuri, D-Block, Mohan Nagar, Pankha Road, New Delhi",Delhi,Delhi,"Sanjay Bansal, Ajay Bansal",,"9*122271*6 ,  9*10*41464","U.P., Punjab, Haryana, Chandigarh, Raj., M.P. & All Over India",Supplier,LCV,*t*_*gg*rw*l@y*hoo.com,,"1109,  407 Ton",Industrial Goods
Aggarwal Transport Roadways(lndia ),"Shop No- X / 25, Loha Mandi, Narayan, New Delhi",Delhi,Delhi,Rajesh Goel,011 - 2*7009*2,"92120*09*2 ,  9*102*09*2","Haryana, Rajasthan, Gujarat, U.P., M.P.,& Maharashtra, Calcutta, Karnataka All Over India",Booking,"HCV, LCV",,,"Trailer,  Container,  10 Wheeler,  12 Wheeler","Steel,  Container Parts"
AGL Transport Pvt. Ltd.,"56/A, Dilashad Garden, Near Telephone Exchange, Shahadhra, Delhi - 95",Delhi,Delhi,Suraj Singh,"011 - *2*79629,  2212*2*2",9**022264*,Daily Parcel Booking For Delhi To Chennai,Booking,HCV,,,Container,Pepar
A.G.R. Logistics,"B -126, Kiran Garden , Main Market , Uttam Nagar, Delhi",Delhi,Delhi,Vinay Kumar Singh,011 - *290092*,"9*1102092* ,  9*1112092*",All Over India,Booking,"HCV, LCV",*grlogi*tic*@y*hoo.in,,"Tempo,  Trailer,  10 Wheeler,  12 Wheeler",Industrial Goods
Agra Aligarh Goods Carriers / Delhi U.P. Uttranchal Roadlines,"AW - 520, Sanjay Gandhi Transport Nagar, Delhi - 42",Delhi,Delhi,Radhey Singh Bhati,011 - *2049*17,"9**0*69*17 ,  9*10*69*17 ,  9*10669*17","Full Load Booking For Delhi To Ghaziabad, Dadri, Khurja, Aligarh, Kosi, Mathura & All Over Uttranchal",Booking,HCV,,,"Trailer,  Container,  10 Wheeler",Industrial Goods
Agra Gwalior Road Carriers,"AW- 101, Sanjay Gandhi Transport Nagar, Delhi",Delhi,Delhi,"Rameshwar, Shanker","011 - 27***4*4 ,  27**2*60 ,  42*6*0**","9*10*17*26 ,  9*129*4616","Truck Supplier For Agra, Gwalior, Shivpuri, M.P., Indore & All India",Booking,"HCV, LCV",,,,
Agra Kosi Haryana Road Carrier,"Aw-119, 1st Floor, Sanjay Gandhi Transport Nagar, Delhi - 42",Delhi,Delhi,sher,"011 - 27**177* ,  27****64",9*11*1*4*6,Full Truck Available For Delhi To Agra (Supplier),Supplier,"HCV, LCV",,,"10 Wheeler,  6 Wheelers","Food,  Parcel Services"
Agron Logistics India Pvt. Ltd.,"BG-554, Sanjay Gandhi Transport Nagar, Delhi -42",Delhi,Delhi,"S. Sarkar , Sanjeev Kumar",011 - 27**7404,"9212196602 ,  9212196601",All Over India,Booking,"HCV, LCV",**njeevg@*gronlogi*tic*.com,www.agronlogistics.com,"Container,  10 Wheeler",Industrial Goods
Ahmedabad Bengal Roadways Pvt. Ltd.,"1295/1-B, Kapashera Village, Opp. D.C. Office, Near Fun 'N' Food Village, Delhi",Delhi,Delhi,Dharmveer,"011 - 2*062*77,  2*062477,  2*061277,  416*6077",9*110*2177,All Over India,"Supplier, Booking","HCV, LCV",*brtr*n*port@y*hoo.com,,"10 Wheeler,  12 Wheeler",Parcel Services
Ahuja Carriers,"36/1, Govindpuri, Kalkaji, Opp. Dtc Bus Depot, New Delhi- 19",Delhi,Delhi,Jagdish Ahuja,"011 - 264**027,  2622**41",9*122*9496,"Delhi, U.P., Haryana, Punjab, Rajasthan, M.P., Gujarat & Maharashtra",Supplier,"HCV, LCV",,,"Truck,  1109,  407 Ton",Industrial Goods
Ahuja Freight Carrier Regd.,"Shade No. 12, A- 4, Okhla Industrial Estate, New Delhi-20",Delhi,Delhi,Sanjeev Ahuja,"011 - 26***067,  26*46667,  41001042",,"Parcel Booking For Calcutta, Mumbai , Bhiwandi, Pune , Baddi, Chandigarh, South",Booking,"HCV, LCV",*huj*freightc*rrier@y*hoo.co.in,,"Container,  10 Wheeler,  12 Wheeler",All Type Material
Ahuja Roadlines,"ICD Office - 316/4, Inland Container Depot, TKD, New Delhi",Delhi,Delhi,Arun Ahuja,011 - 26*6*700 / **00,9*10014916,All Over India,Supplier,HCV,,,,
Ahuja Tempo Service,"2/125, Geeta Colony, Opp, Ramlila Ground, Gate No.2., Delhi",Delhi,Delhi,Joqinder Kumar,,"9*1011***0,  9*1*7662*0","All Over U.P., Haryana, Punjab, Rajasthan, Delhi",Supplier,LCV,,,"1109,  509 Ton",All Type Material
Ahuja Transport Co.,"6th Mile Stone, U.P Border, Near Yuvraj Complex, P.O. Chikamberpur, Ghaziabad",Delhi,Delhi,Pappu Ahuja,,"9210062126,  92*0249*2*","All Over Bengal, Assam, Bihar Spl. Assam","Supplier, Booking","HCV, LCV",,,,
Ahuja Transport Service,"27, Silver Park. Shiv Puri, Delhi",Delhi,Delhi,Inderpal,,"9*1224*9**,  9*10*24920","All Over Uttaranchal , Rajasthan, Punjab",Supplier,"HCV, LCV",inderp*l.*gi@gm*il.com,,"Tempo,  10 Wheeler",All Type Material
Aiorta Logistic Pvt. Ltd.,"Plot. No. 165/ A 8, Pataka Biri Wali Gali, 7th Mile Stone, Dehli -U.P. Border, Ghaziabad",Delhi,Delhi,Pawan Lohia,011 - *29*199*,9*7*07*09*,All Over India,Booking,"HCV, LCV",*llindi*delhi@gm*il.com,,"Tempo,  Truck,  Trailer",All Type Material
Air Transport Corporation (Assam) Ltd.,"37, Rani Jhansi Road, New Delhi-55",Delhi,Delhi,S.D. Goyal,"011 - 2*6144**,  2*6114**,  *2*7*4*9,  *274400",9*106276*6,All Over India,"Supplier, Booking","HCV, LCV",delhi@*t*lindi*.com,,,
Ajanta Road Carriers (Regd.),"6th Mile Stone, Opp. Mata Mandir, Delhi - U.P. Border, Ghaziabad",Delhi,Delhi,S.N. Gupta,"0120 - 262902*,  261**07",9*12*9*111,"Full Truck Load For : All Over India , Special Services For Banaras, Lucknow, Allahabad, Kanpur",Supplier,HCV,,,"10 Wheeler,  12 Wheeler",Parcel Services
Ajay Goods Transport Cargo Movers,"Opp., CRC Compound, U.P - Border, Chikamberpur, Ghaziabad",Delhi,Delhi,Sanjeev Dubey,0120 - 262*1**,*4477*00*7,"Daily Parcel Services H.P., U.P.",Booking,"HCV, LCV",,,1109 Canter,Parcel Services
Ajay Road Lines,"Plot No. 1242, Main PVC Road, Tikri Kalan, Delhi-41",Delhi,Delhi,Satveer Sharma,,"9*9916***4,  9911*42**4",All Over South India,"Supplier, Booking","HCV, LCV",*j*y87890@gm*il.com,,"1109,  1110,  407 Ton","Industrial Goods,  Parcel Services"
Ajay Tempo Transport Service,"B - 48, Sahjada Bagh Extension, Daya Basti, Delhi",Delhi,Delhi,A.L. Pandey,011 - 2*6*74**,,"All Over Delhi, NCR",Supplier,"HCV, LCV",,,,
Ajit Jodhpur Gujrat Roadlines,"AW-12, Sanjay Gandhi Transport Nagar, Delhi - 42",Delhi,Delhi,Pardeep,"011 - 27**16*0 ,  27**1*1*",9*11***4*0,"Full Truck All Over Rajasthan , Jodhpur, Jaipur. Badmer",Booking,HCV,,,"10 Wheeler,  12 Wheeler",All Type Material
Ajit Jodhpur Roadllne,"G.T. Road, Giani Border, P.O. Chikamberpur, Ghaziaba.",Delhi,Delhi,"Sonu, Ratan Singh","0120 - 410*97*,  262297*","9**02*7*4* ,  9210117*4* ,  9*12127***","Full Truck Available For Punjab, Haryana, Rajasthan, Gujarat, M.P, Bihar",Supplier,"HCV, LCV",,,"10 Wheeler,  6 Wheleers",All Type Material
Ajmer Trailer Transport Delhi,"Flat No. 204, B-28-29, Vishwakarma Colony, Delhi",Delhi,Delhi,"Shabbir Bhai , Shahil Bhai","011 - 26*6**16,  26*6**17","9*11***662 ,  9*11***660,  9*10***660,  9*711***10",Service All Over India,Booking,,*jmertr*ilerdelhi@gm*il.com,,Trailer,Machinery
Ajmer Vapi Truck Transport Co.,"HR-163, B-17, Gali No.7, Pul Parhladpur, New Delhi",Delhi,Delhi,"Gopal Singh Rawat, Satish Sharma",,"99104*1777,  9*119*7117,  99104**777 ,  92144*7117","All Over Gujarat, Rajasthan, Mumbai, M.P.",Supplier,HCV,info@*jmerv*pitrucktr*n*portcomp*ny.com,www.ajmervapitrucktransportcompany.com,Trailer,"Machinery,  Iron"
Akal Transport CO. / Akal Trans (India),"A / 34, Vishwakarma Colony, M.B. Road, Delhi",Delhi,Delhi,"Paramjit Singh, Jaspal","011 - 26*66701,  26*60106 ,  26*60407","9*10120247,  9*10072*09",Open Truck Trailers For Local & All Over India,Supplier,HCV,p2k*tc@v*nl.net,,Trailer,Export- Import Goods
Akash Freight Carrier / Jai Shree Luxmi Roadways,"Shop N. 10, Plot No. A/14, Jain Market, G.T.K. Road, Libaspur, Delhi",Delhi,Delhi,Satish,011 - 27**41*7,"9*1**2*4*1,  921226**10",Truck Available For U.P. Bihar & Jharkhand,Supplier,HCV,,,,
All Bharat Transport Co. (Regd.),"B-198, Basement, Mansarover Garden, Opp., Lamba Crane, New Delhi",Delhi,Delhi,Munish Bakshi,011 - 41421**6,9*1107***6,All Over India,Booking,LCV,muni*hbk*i86@gm*il.com,,"10 Wheeler,  12 Wheeler",All Type Material
All India Carriers (P) Ltd.,"3 A /3, Asaf Ali Road, New Delhi-110 002",Delhi,Delhi,Vishnu,"011 - 2*27*616,  *0*4*17*",9**0**10**,Full Load All Over India,Supplier,"HCV, LCV",*llindi*c*rrier*@gm*il.com,,,
All India Carriying Corp.,"Mehrauli Road, Mahipalpur, Delhi",Delhi,Delhi,M.P. Tiwari,"011 - 267**71* ,  416*7*01",9*10**0994,Full & Part Load Booking All Over India,Booking,LCV,,,"1109,  407 Ton",Parcel Services
All India Road Carriers,"A-18-B. Shalimar Housing Complex, Chabra Colony, Shalimar Garden, Sahibabad, Delhi",Delhi,Delhi,Satish Bhati,,"9*1**422** ,  9*91****6*",Full Load Booking All Over India,Booking,"HCV, LCV",*llindi*ro*dc*rrier*@gm*il.com,,"Tempo,  Tanker",Liquid Cargo Tanker
All India Road lines (Regd.),"A-17, Bharola, Subzi Mandi, Azadpur, Opp. D-Block. Delhi",Delhi,Delhi,Mahadev Bhatt,011 - 2767*7*6,"9212217962 ,  9*91092962","Daily Sevice: U.P Uttranchal, Nepal. Haryana, Punjab Rajasthan, M.P. Maharashtra, H.P.",Supplier,"HCV, LCV",,,1110,"Fruit,  Vegetables"
All India Tempo Transport,"D-31-A, Main Najafgarh Road, Uattam Nagar, Near State Bank, Delhi",Delhi,Delhi,Harkesh Sharma,011 - 64*6*67*,"9*12241*2* ,  9212670470","Tempo , Trucks Available Special For U.P., Uttaranchal, Haryana, Rajasthan, Punjab & All Over India",Supplier,"HCV, LCV",tpt*llindi*@y*hoo.com,,,
All India Transport Co.,"Jyoti Cinema , U.P. Border , P.O. Chikamder Pur, Ghaziaba.",Delhi,Delhi,Anil,,"9*1*02*721 ,  9*12714721 ,  99716**4*4","Delhi, U.P .. Uttranchal, Haryana, Rajasthan. Punjab, Bengai, Bihar","Supplier, Booking",LCV,,,"1109,  407 Ton",Parcel Services
Allahabad Delhi Transport Co.,"Shop No.1, Ambey Market, G.T. Road, UP. Border, Gz.",Delhi,Delhi,Dharm Raj,"0120 - 26279*9 ,  2624*96","9*1066*960 ,  9*1116*960","Truck Supplier For Allahabad, Kanpur, Varanasi, All U.P & M.P",Supplier,"HCV, LCV",,,"10 Wheeler,  12 Wheeler",All Type Material
Allied Transport Company (P) Ltd.,"3968 / 70, Montgomery House, Roshanra Road, Delhi",Delhi,Delhi,Gurbachan Pal Singh,"011 - 2**27406 ,  2**22*6*",9*1*49*0000,Container Booking For Northern And Central India,Booking,HCV,,,Container,
Alwar Bhiwadi Transport Co. (Reqd.),"Shop No. 13, Kharsa No. 897, Main Rohtak Road, Swaran park, Near Om Dharam Kanta, Mundka, Delhi -2",Delhi,Delhi,"Ravi Prakash , Satish",,"9*1212*194,  9*12***711 ,  9212*7*0** ,  92126**676 ,  **6006*042","Service : All Over Rajasthan & Haryana, Local Service.",Supplier,"HCV, LCV",,,"10 Wheeler,  1109 Ton",Local Goods
Alwar Janta Transport Co. (R),"B-68, Oil Market, Near Phatak No-4, Mangolpuri, Industrial Area, Delhi-83",Delhi,Delhi,Suraj & Bittoo,,"9*11220142 ,  9212000092,  96*4*4***0,  921270*001,  9*11220142",All Over NCR,Booking,LCV,,,,
Aman Cargo Movers,"CW-263, Sanjay Gandhi Transport Nagar, Delhi",Delhi,Delhi,Upkar Singh,,"9*11*0*6*6 ,  9*10*0*6*6 ,  9*1*617272",Full Truck Available For Delhi To Banglore,Supplier,HCV,,,10 Wheeler,Industrial Goods
Aman Kashmir Roadlines,"332, Sarai Pipal Thalia , Opp., Shimla Mandi, Azadpur, Delhi -33",Delhi,Delhi,Aman,,"9*116721** ,  99**70****",All Over Jammu & Kashmir,Supplier,LCV,,,LPT,Fruit
Aman Road Carriers Regd. / Aligarh Agra Carrier,"38-C, MIG Flat GT B., Enclave Road, Delhi",Delhi,Delhi,Mahipal Singh,011 - 22*76*70,"971*06*470 ,  9*91699*70",Service All Over India,Booking,HCV,*m*nro*dc*rrier@gm*il.com,,"Trailer,  Container,  12 Wheeler",Industrial Goods
Aman Road Transport Pvt. Ltd,"Bhaderpur Border, Delhi",Delhi,Delhi,Virender Chouhan,011 - 4*19*0**,9*110*9*7*,Full Load Booking For All Over India,Booking,HCV,*m*n@y*hoo.com,,"Container,  10 Wheeler",All Type Material
Amar Golden Transport Co.,"PO. Gokalpuri Loni Border, Delhi - 94",Delhi,Delhi,Darshan Singh,011 - 64640*9*,"9*106*7**2 ,  9911060094 ,  91*6*4***4 ,  9*101094**","Daily Service : Gujarat, Rajasthan, Maharashtra, M.P., Jharkhand",Supplier,HCV,*m*rgolden@outlook.com,,"Trailer,  10 Wheeler,  12 Wheeler",All Type Material
Amar Transport Co.,"Shop NO.3, Opp., Kundan Lal Petrol Pump, Loni Road, Delhi - 94",Delhi,Delhi,Kuldeep Singh & Rahul,011 - 6464292*,"9*11*204*2,  9*11*207*2 ,  9*10**07*2,  9*719707*2","Daily Service : Rajasthan, Gujarat, Maharashtra, U. K.",Booking,"HCV, LCV",kuldeep*ingh98115@gm*il.com,,"Trailer,  10 Wheeler,  12 Wheeler",Fruit
Amardeep Trailer Service,"91/3, Flat No. 103, Vishwkarma Colony, New Delhi - 44",Delhi,Delhi,Chiranji,,9*1141046*,"All Over Rajasthan, Gujarat, Maharashtra",Supplier,HCV,,,,
Amarjeet Roadlines & All General Insurance Point,"BS-45, Sanjay Gandhi Transport Nagar, Delhi - 42",Delhi,Delhi,Sonu Chhabra,,9*919***67,Full Truck Available For All Over India,Supplier,HCV,chh*br*p*rveenkum*r@gm*il.com,,10 Wheeler,Industrial Goods
Amba Door to Door / Godown Service,"1327, Katra Heera Lal., Asaf Ali Road, Behind PNB Jindal House, Ajmeri Gate, Delhi - 6",Delhi,Delhi,Pankaj Suri,011 - 2*2***69,"9971266110 ,  9*71274441","Special Service For Mathura, Agra All Over India",Booking,"HCV, LCV",,,"10 Wheeler,  12 Wheeler",All Type Material
Amba Road Carriers,"599-B, Hamilton Road, Kashmere Gate, Delhi - 6",Delhi,Delhi,Anil Malhotra,,"9*126*02*9 ,  9**0191*97 ,  9*1007*977 ,  9**06*1161",All Over India,Booking,,*nilm*lhotr*@y*hoo.com,,"1109,  407 Ton",All Type Material
Ambaji Road Carriers,"AG-460, Sanjay Gandhi Transport Nagar, Delhi - 42",Delhi,Delhi,"J.M. Sapra , Pawan Sapra",,"9*7*4*4101 ,  9*111*41*6",Full Truck Available Delhi To Hyderabad & Vijaywada,Supplier,HCV,*mb*jiro*dc*rrier*@gm*il.com,,10 Wheeler,
Ambala Bombay Roadways,"BG - 314, Sanjay Gandhi Transport Nagar, Delhi - 43",Delhi,Delhi,Jai Dev Singh,011 - 27**29*7,"9**02*6941,  9*112112*0",Full Truck Available For All Over India,"Supplier, Booking","HCV, LCV",,,12 Wheeler,All Type Material
Ambala Patiala Roadways,"CW-580, Sanjay Gandhi Transport Nagar, Delhi - 42",Delhi,Delhi,Raj Mahajan,"011 - 27*****9 ,  27**290*",9*10**41** / 1*6 / 1*7,"Full Truck Available For Bengal, Bihar, Kolkata",Supplier,HCV,,,,
Ambawta Transport,"Main Road, Jonaturpur, Mehrauli, New Delhi - 47",Delhi,Delhi,Ambawta Jaiprakash,,"9*11**1*94 ,  9*99214*2*","Services - U.P., Haryana . Rajasthan. Uttaranchal , Chandigarh, Punjab. Gujarat",Supplier,HCV,,,"Canter,  1109,  407",Industrial Goods
Ambica Transport Coprn.,"13, Khanna Market, Tis Hazari Road, Delhi",Delhi,Delhi,Arvind Drivedi,,"9*10*702** ,  9*116602**","Special Service Bihar, Delhi, Booking All Over India",Booking,HCV,,,,
Ambika Cargo Carriers,"572 / 30, Puja Namkina Gali, Opp., Metro No - 541, Mundka, Delhi - 41",Delhi,Delhi,Rajesh Sharma,011 - *24****6,"9**01*7694 ,  9**0662046",All Over India,Booking,"HCV, LCV",*mbik*c*rgoc*rrier*97@gm*il.com,,"Trailer,  Container",All Type Material
American Transport Corp.,"4297. Naya Bazar, Opp. Pilli Kothi, Delhi",Delhi,Delhi,C. P. SINGH,"011 - 2*9*1*74,  2*962*1*",,Daily Parcel Service For Delhi - Agra - Delhi,Supplier,HCV,,,LPT,Parcel Services
Amit Cargo Movers,"731 / 2, Firni Road, Mundka, Delhi",Delhi,Delhi,Amit,,"9**0272*72,  9**00*94**","Full & Part Load Booking For All Over India, Supplier In Local","Supplier, Booking","HCV, LCV",,,,
New Amit Freight Carrier Regd.,"CW-530, Basement, Sanjay Gandhi Transport Nagar, Delhi",Delhi,Delhi,Amit Pal,"011 - 27**2616 ,  27**2**6","9*11*720*0 ,  99**47*9*0","All Over U.P., U.K.","Supplier, Booking","HCV, LCV",,,"10 Wheeler,  12 Wheeler,  6 Wheleers",All Type Material
Amit Road Carrier (I) Pvt. Ltd.,"328, 3rd Floor, Apsara Cinema Complex, Ghaziabad",Delhi,Delhi,Sonu,"0120 - 2*9***7 ,  2*9****","9*10*09797,  9910*09797,  9*10609797",All Over India,Supplier,"HCV, LCV",*unil.*jm143@rediffm*il.com,,Trailer,"Industrial Goods,  Machinery"
Amit Road Carrier / A To Z on Wheels Pvt. Ltd.,"Plot No- 204, Block No-03, Milarband Instention , Baderpur, New Delhi",Delhi,Delhi,Ranbir Verma. Neeraj Verma,"011 - 2699*160 ,  29*9*62* ,  6*2*1090","9*126****9 ,  9*114*0**0","Service For Bihar, Bengal, Assam, Orissa, Booking All Over India","Supplier, Booking","HCV, LCV",*tozonwheel*@y*hoo.com,,"1109,  407 Ton","Industrial Goods,  House Hold Goods,  Medicine"
Amit Roadlines,Off. No.18. Goods Shed. Kishan Ganj. Delhi - 7,Delhi,Delhi,Suresh Kumar,"011 - 2*69**6* ,  2*69*040","9*1****00* ,  9*10072622","Full Load Booking For Delhi. U.P., Haryana, NCR",Supplier,HCV,,,6 Wheleers,Cotton Shet
Amit Roadlines,"K 20, AMAR COLONY MAIN ROHATAK ROAD, NANGLOI, DELHI - 41",Delhi,Delhi,Subhash Hooda,011 - 2*4709*9,"9212*0*2*2 ,  9*12*77672","Available For All Over India, Special Local","Supplier, Booking",,,,"1109,  1110 Ton",Export- Import Goods
Amit Roadways,"39 / A Shyam Enclave, Shahirabad, Ghaziabad",Delhi,Delhi,Satpal Singh,,9*1*02092*,Truck Available For Bihar. Bengal. Assam,Supplier,HCV,,,,
Amit Transport Service,"FC - 2, Market Narela , Delhi -40",Delhi,Delhi,Joginder Khatri,,"9*1*106496 ,  926***094*",All Over Delhi,Supplier,"HCV, LCV",,,"407,  909,  1109 Ton",Parcel Services
Amrit Roadlines,"Near Shani Mandir, .U.P. Border , Ghaziabad",Delhi,Delhi,"Davinder Singh ,Amardeep Singh, Manindtir Singh",0120-26216*6,"991096*249,  9*7171*76*",All Over Uttrakhand & U.P.,Supplier,"HCV, LCV",,,"10 Wheeler,  1109 Ton,  6 Wheeler",Parcel Services
Amrit Sahib Road Carrier Regd. / Bangala Sahib Road Carrier,"AW-467. Sanjay Gandhi Transport nagar, Delhi",Delhi,Delhi,"Amrik Singh, Surender Singh, Gulwant Singh",011- *20*2447,"9971274600,  9*1**92*77,  9*11*220*4","Special For Bihar. Bengal. Jharkhand. Orissa, And All Over India",Supplier,HCV,,,,
Amritsar freight Carriers,"Behind ARC, U.P., Border, P.O. Chikamberpur Ghaziabad",Delhi,Delhi,Kajor Singh Javed,,"9*107***1*,  *010*6*6**","Full Load Truck For Punjab, Himachal. J & K",Booking,"HCV, LCV",,,"10 Wheeler,  12 Wheeler,  6 Wheelers",All Type Material
Amritsar Ludhiana Roadline,"GDA, Plot No-18, U.P. Border, Opp., Police Chowki, Ghaziabad",Delhi,Delhi,"Ram Avatar, Anil Gupta",0120 - 262*779,"9*1*07*107,  9*1107*107","Full Truck For All Punjab, Uttaranchal, Haryana, J & K",Supplier,HCV,,,Trailer,Industrial Goods
Amritsar Maharashtra Transport Corpn. (Regd),"4297, Pul Mlthal , Naya Bazar, Delhi-110006",Delhi,Delhi,Rajender Singh. Vijay Mishra,"2*924242,  2*9***01",,"Daily Parcel Service Maharashtra. Punjab, M.P., Himachal","Supplier, Booking","HCV, LCV",,,,
Amritsar Orissa Roadlines,"Shop No.-8, Shiva Compound, 7th Mile stone, Giani Border, P.O., Chikamberpur, Ghaziabad (U.P.)",Delhi,Delhi,Jitender Singh,,"9*10464747,  9*714*4747","Daily Service : Orissa, Jharkhand, West Bengal",Supplier,HCV,,,"Trailer,  10 Wheeler,  12 Wheeler",All Type Material
Amritsar Road Carrier,"Rawalpindi Garden, P.O. Chikamberpur, Ghaziabad",Delhi,Delhi,Yashpal & Ashok,"0120 - 262964* ,  262*729",9*1*6*7720,"Full Truck For Amritsar, Jalandhar, J & K",Supplier,"HCV, LCV",,,"6 Wheelers,  1109 Ton",All Type Material
Amritsar Roadline,"UP. Border, P.O. Chikamberpur, Telephone Exchange, Ghaziabad",Delhi,Delhi,Vichitra Singh,0120 - 2624164,9*99024164,"Arnritsar, H.P., Punjab, Haryana, Gujarat, Rajasthan, U.P., J & K",Supplier,LCV,,,"10 Wheeler,  6 Wheelers,  1109 Ton","Machinery,  Parcel Services"
Ananad Motor Transport Service/ Anand Roadlines,"CW-615, 1st Floor, Sanjay Gandhi Transport Nagar, Delhi",Delhi,Delhi,"Kuldeep Anand, Amit Anand",011 - 47**1977,"9*91261041,  9*11*610**","All Over Kolkata, J & K",Supplier,"HCV, LCV",,,,
Anand Logistics Pvt. Ltd.,"601, Deepali Building , 92-Nehru Place, New Delhi",Delhi,Delhi,"Arvind, Saini",011 - 416199*7,"9*107969*2,  9*1*77199*","Aurangabad, Mumbai, Bangalore, Pathankot, Baroda All Over India",Booking,HCV,*n*ndrd@rediffm*il.com,,"Trailer,  Container",All Type Material
Anand Road Carriers Logistics,"Gali No.1, Plot No - 4, U.P. Border, Ghaziabad",Delhi,Delhi,Suresh Kumar,0120 - 411**7*,"9*6*2199**,  9*1**1****",All Over South India,"Supplier, Booking",HCV,,,Container,All Type Material
Anand Road Carriers Regd.,"C-174, Ground Floor, Harinagar, Clock Tower, New Delhi",Delhi,Delhi,R.D. Verma,"011 - 2*4962*7,  2*126400,  202*472*",9*1**69747,Part Full Load All Over India,"Supplier, Booking",,*rcindi*@hotm*il.co.in,www.anandpackers&movers.in,"10 Wheeler,  8 Wheelers",All Type Material
Anand Road Lines,"601, Deepali Building ,92-Nehru Place, New Delhi",Delhi,Delhi,"Arvind, Saini",011 - 416199*7,"9*107969*2,  9*1*77199*","Aurangabad, Mumbai, Bangalore, Pathankot, Baroda, Sonipet All Over India",Booking,HCV,,,"Trailer,  Container",All Type Material
Anand Roadways (R),"84, New Qutab Road, Teliwada, Delhi-6",Delhi,Delhi,"Anil Anand, Atam Anand","011 - 2**2109* ,  2*6291*7",9*1020769*,"Parcel & Full Load Booking Special For Bihar, All South India",Booking,"HCV, LCV",,,10 Wheeler,All Type Material
Anand Tempo Service,"Krishna Compound, Old Seemapuri Road, U.P. Border, Ghaziabad",Delhi,Delhi,Than Singh,"0120 - 2621472 ,  26299*2",9*1*791171,"M.P Gujarat, Mah., Rajasthan, U.P., A. P., T.N., Karnataka",Supplier,LCV,*t*.gh*zi*b*d@y*hoo.in,,1109,Industrial Goods
Anand Transport Corporation / Rama Transport Corpn.,"6th Mile Stone, Delhi U.P. Border, P.O. Chikamberpur, Ghaziabad",Delhi,Delhi,Shiv Kumar,0120 - 262*190,9*11420190,All Over South India,Supplier,,,,"Trailer,  Container",Electronics Goods
Anand Transport Co.,"6th Mile Stone, Vimal Compound, Ghaziabad",Delhi,Delhi,G.S. Anand,"0120 - 262*19*,  262200*",9*1*690011,"All Over Maharashtra, M.P.",Supplier,HCV,,,,
Anchal Road Carriers,"Plot No.6, Sarika Vihar, Near Goyla Mode, Najafgarh, New Delhi - 43",Delhi,Delhi,Joginder Sharma,,"9*1101*11*,  921224**1*,  9*1009*41*",All Over South India,Booking,"HCV, LCV",,,"Container,  10 Wheeler",House Hold Goods
Andhra Banglore Roadways Pvt. Ltd.,"C-2/22, Rawal Pindi Garden, Behind Yuvraj Company, Delhi - U.P. Border, Ghaziabad",Delhi,Delhi,Sanjay Kumar,,9*119*021*,All Over India,"Supplier, Booking","HCV, LCV",,,Container,All Type Material
Andhra Bombay Road Lines (R),"SW-18, Sanjay Gandhi Transport Nagar, Delhi",Delhi,Delhi,Harvansh Rana,,"9212*11**2,  9*990**6**,  9212***6**",All Over India,Supplier,LCV,,,,
Andhra Bombay Roadways,"7796/5, Goenka Road Roshanara Road, Delhi",Delhi,Delhi,Jagtar Singh,011 - 2*921794,"9*9164*041,  9*10*46444,  9*7*1*4**9","Daily Service Special For Delhi To Surat, Gujarat, Hyderabad , Banaglor & All Over India",Supplier,HCV,,,10 Wheeler,All Type Material
Andhra Bombay Roadways,"47, Khanna Market, Tis Hazari, Delhi - 54",Delhi,Delhi,Radhay Shyam,011 - 2*944*69,9*10714,"Full Load Booking For Hyderabad, Vijaywada, A.P., Maharashtra, Bangalore",Booking,"HCV, LCV",,,"Tempo,  Trailer,  10 Wheeler,  12 Wheeler",All Type Material
Andhra Golden Transport Company,"AW-389, Sanjay Gandhi Transport Nagar, Delhi",Delhi,Delhi,Murari Lal Sharma,011 - 27****92,"9*10**6172,  9*10**617*","Daily Services For A.P, M.P., Orissa, Chhattisgarh",Supplier,HCV,,,"10 Wheeler,  12 Wheeler",All Type Material
Andhra Indore Roadways,"CW-202, Sanjay Gandtii Transport Nagar, Delhi",Delhi,Delhi,D.S. Nagra,"011 - 27**21*1,  6*1**1*1",92121621*1,Full Truck Available For Hyderabad. Indore. All Over A.P.,Supplier,HCV,,,,
Andhra M.P. Goods Carriers,"AG 476, Sanjay Gandhi Transport Nagar, Delhi",Delhi,Delhi,Jai Bhagwan,011 - 27***49*,"9*1212*620,  9*111*16*4,  9**0*416*4,  9*1212*620","All Over Vishakhapatnam, Orissa, M.P., C.G.",Supplier,HCV,,,"10 Wheeler,  12 Wheeler","Industrial Goods,  Machinery"
Andhra Maharashtra Roadline,"AW-4, Sanjay Gandhi Transport Nagar, Delhi -42",Delhi,Delhi,Goldy,011 - *299*2**,"9*1079*2** ,  *010*9*2**","Full Truck Avialable All Over Hyderabad , Raipur , Maharashtra",Supplier,HCV,,,,
Andhra Orissa Roadways,"CW-48, Sanjay Gandhi Transport Nagar, Delhi-42",Delhi,Delhi,"Vikky , Vijay Nagrm","011 - 27**1*1* ,  42*6*2*2",9*1*26*700,"Full Truck Services For Orissa, Vishakhapatnam, A. P.",Supplier,HCV,,,"10 Wheeler,  12 Wheeler",All Type Material
Andhra Road Corporation,"4882, Phoota Road, Opp. Westend Cinema, Sadar Bazar, Delhi",Delhi,Delhi,"M.L. Parik, Anand","011 - 2*6*7494 ,  2**4760*",9*1*042999,Parcel Booking For Delhi To Hyderabad,Booking,HCV,,,"10 Wheeler,  12 Wheeler",Parcel Services
Andhra Road Lines (HP),"CW - 556, Sanjay Gandhi Transport Nagar, New Delhi",Delhi,Delhi,Om Dutt Sharma,,"9*12****07,  92127***07",Daily Service For Himachal Pradesh,Supplier,"HCV, LCV",,,,
Andhra Roadlines (Delhi),"CW - 664, Sanjay Gandhi Transport Nagar, New Delhi - 42",Delhi,Delhi,Rajbir Sharma,011 - 27**1270,"996*40*60*,  9*1*662246,  9717**149*","Daliy Serevice :- M.H., A.P., Chennai",Supplier,HCV,,,,
Anil Cargo Pvt. Ltd.,"8445/1, Arya Nagar, Paharganj, Delhi",Delhi,Delhi,M.P. Sharma,2**40116 / 117 / 11* / 119,"9*1012*4*2,  9*1**22677,  9**074299*",All Over India,Booking,HCV,*nilc*rgoc*rrier*@y*hoo.co.in,,,
Anil Golden Transport Service,"6th Mile Stone, Near Telephone Exchange, U.P. Border, P.O. Chikamberpur, Ghaziabad",Delhi,Delhi,Anil Sharma,,"9*10*0*292,  9*1267*797","All Over U.P., Uttaranchal",Supplier,"HCV, LCV",,,,
Anil Mantra Logistics Pvt. Ltd.,"A-88/6, 2nd Floor, Road - 2 , Mahipalpur Extension , New Delhi - 37",Delhi,Delhi,Dhanraj Yadav,011 - 267**766,*7*0042*0*,All Over India Imports,Supplier,LCV,import*@*nilm*ntr*.com,,"Tempo, Canter",All Type Material
Anil Road Carrier,"153/54/55, Transport Centre, Azadpur, Delhi",Delhi,Delhi,"Manohar Lal Chhabra, Gourav",011 - *07114*0,"9*10****9*,  9*111*14*9,  9*9924*9*9","Truck Available For Raipur, Bilaspur, M.P., Chhattisgarh, Orissa, A.P., Vishakhapatnam",Booking,"HCV, LCV",,,"10 Wheeler,  12 Wheeler",Fruit
Anil Roadways,"CW - 48, 2nd Floor, Room No.12, Sanjay Gandhi Transport Nagar, Delhi - 42",Delhi,Delhi,Jaivir Sharma,011- *20*0244,"99**72*164 ,  99**729*71",All Over India,Booking,"HCV, LCV",,,"Tempo,  Trailer,  Container,  10 Wheeler,  12 Wheeler",Machinery
Anil Tempo Service,"Near Sonia Hospital, Amar Dharam Kanta, Opp. Pillor No. 437, Ratan Bagh, Delhi",Delhi,Delhi,"Sanjay, Sunil",,"9*112217**,  9212127**","Daily Service : U. P., Haryana, Pubjab, Maharashtra All Over India","Supplier, Booking","HCV, LCV",,,"10 Wheeler,  1109,  407 Ton",Parcel Services
Anil Tempo Service,"70/1/1,Main Marbel Market, Mangolpur kala, Delhi - 85",Delhi,Delhi,"Anil Shokeen, Sunil Shokeen",,"9*10*62602,  9*122*2*92,  9*11**2*92","All Over Delhi, U.P., Haryana, Chandigarh, Punjab & Rajasthan Spl. Local",Supplier,LCV,,,"407,  909 Ton","Tiles,  Marbles"
Anil Tempo Transport Service,"3749, Old Subzi Mandi, Delhi",Delhi,Delhi,Satish Kumar,011 - 2**29412,9*10444906,All Over Haridwar,Booking,LCV,,,,
Anil Transport Service,"CSC Market, Transport Centre, Rohatak Road, Punjabi Bhagh, Delhi",Delhi,Delhi,Gulaanraj Sharma,"011 - *2926226,  2**1*6*0",,All Over India,"Supplier, Booking","HCV, LCV",,,,
Anjani Express,"Shop No.5, Bagga Bhawan, 6th Mile Stone, Near Shani Dev Mandir, Ghaziabad",Delhi,Delhi,Ram Kumar,,"9*112*6*74,  9*121**944","Service Export / Import Delhi To Mumbai , All Over Gujarat",Supplier,HCV,,,Container,Food
Ankit Roadlines,"A-71, Village Gazipur Partparganj, Delhi",Delhi,Delhi,Dalbeer singh,,"9**24226*1,  9**0*****1,  9971*17941",Full Load Service All Over India,Supplier,HCV,,,"Tempo,  1109,  407 Ton",Custom Goods
Ankit Tempo Transport Service,"Hotel Sagar, U.P., Border, Post Office Chikamberpur , Ghaziabad",Delhi,Delhi,Satish Kumar,,"9*10949692 ,  996**7126*","Service - Delhi, U.P., Haryana, All Over India",Supplier,LCV,,,"1109,  407 Ton",All Type Material
Anmol Roadlines,"4721, 1st Floor, Roshahara Road, Delhi",Delhi,Delhi,Rajesh Anand,"011 - 2**24440,  2**26440,  2**2*440,  2**29299","9*106*61**,  99114161**,  9999*1*141",Full Load Booking All Over India,Supplier,"HCV, LCV",,,,
Anmol Transport Co.,"20, New Qutab Road, Delhi-6",Delhi,Delhi,"Manjeet Singh, Saranjeet Singh",011 - 2*6726*0,"9*7**0*4*6,  9211*90047","Full & Part Load For J&K, Baramulla, Sopore",Booking,HCV,,,"10 Wheeler,  6 Wheelers",All Type Material
Anoop Tempo Transport Service,"Shop No.1, DDA Market, Dilshad Garden, New Delhi-95",Delhi,Delhi,"Ashteh Sobtt, Anoop Sobti",,9*11*947**,All Over India,Supplier,LCV,*noop*obti224@gm*il.com,,,
Ansh Roadways Transport Service,"Khasra No. 16/11, Gali No. 7-8, Muradi Road , Swaroop Nagar Extension, Delhi-42",Delhi,Delhi,Sandeep Kumar,,"09711006*17 ,  9212429*17,  9977*0*4*1",Delhi To Bhopal To Delhi,Booking,"HCV, LCV",,,,
Anshul Goods Carriers,"D-1/770, Gali No:- 7B, Ashoka Nagar, Shahadara, Delhi - 93",Delhi,Delhi,Rajkumar,011 - 6*7*99*4,"9911*969*7 ,  9*10991*7* ,  9716*0*11*","Service :- Agra , Gwalior, Indore . Bhopal & All Over M.P.",Supplier,LCV,,,"407,  909 Ton",All Type Material
Antarrajaya Transport (Alwar),"Plot No.1, DCM Chowk, Zakhira, Delhi",Delhi,Delhi,Harcharn Singh,011 - 2*1191**,"9*2**9**7* ,  99**10*160","All Over Alwar, Bhiwadi","Supplier, Booking","HCV, LCV",,,"10 Wheeler,  6 Wheelers","Machinery,  Retail,  Furnitures"
Anup Road lines,"Gali No - 8, Swaroop Nagar Extension, Delhi-42",Delhi,Delhi,Sube Singh,011 - *241*799,9*10004*14,"Parcel Services For Chhattisgarh, Maharashtra","Supplier, Booking",,,,"10 Wheeler,  407,  909 Ton",All Type Material
Apar Roadline(R),"U.P Border, Post Office, Chikamberpur, Ghaziabad",Delhi,Delhi,Munesh Kumar,"0120 - 262*620 ,  2620114",9*12**996*,"For U.P, Bihar, Bengal, Special Services For : Kanpur, Luckhnow, Banaras",Supplier,LCV,,,6 Wheelers,All Type Material
Apollo Roadlines,"Godown Burari Road, Gali No - 8, Sawrop Nagar, Delhi",Delhi,Delhi,Sanjay Gupta,,"9212429*17 ,  9212429117 ,  9***621717,  9***171717",All Over South India,Booking,HCV,,,10 Wheeler,Parcel Services
APS Carriers Regd.,"N- 39, Shyam Enclave, Gaini Border, Nitco Wali Gali, U.P. - Border, Delhi",Delhi,Delhi,"Ajit Singh, Harvinder Singh",,"9*11**1*2* ,  9*1042*190 ,  9*12*104*4","Full & Part Load Booking For U.P. Punjab, & All Over India",Booking,"HCV, LCV",*jitp*l.*.c*rrier*@gm*il.com,,"Tempo,  Truck,  10 Wheeler,  12 Wheeler","Coal,  House Hold Goods"
Arihant Logi Corporation,"8551, Gulshan Guesi House, Roshanara Road, Delhi",Delhi,Delhi,Dinesh Chandra,"011 - 2**2294* ,  2**2094* ,  2**22949",9*100707*9,Daily Service & Full Load Booking For All Over India,"Supplier, Booking","HCV, LCV",,,"10 Wheeler,  12 Wheeler","Industrial Goods,  Food"
Arora Tempo Transport Service,"G. T. Karna Road, B-Block, Near Gola Bankat Hall, Industrial Area, Delhi-33",Delhi,Delhi,Ravinder Singh,011 - 274*97**,9*11*0*6*2,"For Delhi, U.P., & Haryana",Booking,LCV,,,"407 Ton,  3 Wheelers",Industrial Goods
Jai Mata Dee Transport Co.,"Chaudhary Compound, Opp. TCI Godown, U.P. Border, PO. Chikamberpur, Ghaziabad",Delhi,Delhi,Sukhvinder Singh,,9*1020*4*1,"All Over U.P., Agra, Mathura, Firozabad",Supplier,LCV,,,6 Wheelers,All Type Material
Arora Transport Service,"6/14, Industrial Area, Kirti Nagar, New Delhi-15",Delhi,Delhi,Sumit Arora,,9*11*4****,All Over India,Booking,"HCV, LCV",,,,
Arpit Road Carriers,"205, 2nd Floor, Apsara Cinema Complex, U.P. Border, Chikamberpur, Ghaziabad",Delhi,Delhi,Ajay Singh,"0120 - 2629796 ,  2629797 ,  4*12797 ,  4*7*797","9*11009797 ,  9*1*719797",Service All Over India,Supplier,HCV,*rpit.ro*dc*rrier234@gm*il.com,,Trailer,Industrial Goods
Arun Transport Co. (R),"B-18, DSIDC Complex, Timber Market, Kirti Nagar, New Delhi- 15",Delhi,Delhi,Arun Sharma,011 - 2*41664*,"92*092492* ,  92*0924926","All Over India, Special For Calcutta","Supplier, Booking",LCV,*tc.*run*h*rm*@y*hoo.co.in,,"14 Ft.,  19 Ft. ,  407 Ton",Industrial Goods
Arunanchal Transport Corporation,"2, Khanna Market, Tis Hazari, Delhi",Delhi,Delhi,Vimal,"011 - 2***11** ,  2***1166",*1*02*0011,"Parcel Booking For Gowahati & Assam, Nagaland, Arunachal, Manipur",Booking,HCV,,,10 Wheeler,Parcel Services
Arvind Road Carrier Pvt. Ltd.,"A-10, Mahindra Market, G.T. Karnal Road, Delhi - 33",Delhi,Delhi,Subhash,,9*111*4649,All Over South India,Booking,HCV,,,"Trailer,  10 Wheeler,  6 Wheelers","Car,  Bike Supplier"
Arya Transport Co. (Regd.),"Lohari Gate, 3rd 3947, Naya Bazar, Delhi - 6",Delhi,Delhi,RAJIV,,9*1*961100,"Daily Parcel Harpur, Pilkhwa, Gulawati All Over Delhi",Booking,LCV,,,"407,  Canter",Parcel Services
Aryavart Transport Corporation,"Vimal Compound, 6th Mile Stone, U.P. Border, Ghaziaba.",Delhi,Delhi,Subhash Chandra Arora,0120 - 262*4*1,"9*712*1*4* ,  9*719**7*7","Parcel Booking For Bahadurgarh, Rohtak, Bhiwani, Karnal, Gurgaon, Riwari, Ambala, Panipat, Sonipat, Karnal & All Haryana",Booking,"HCV, LCV",,,"Truck,  10 Wheeler,  1110 & 1109",Parcel Service
Arzoo Transport Corporation,"Shop No. 2, 1st Floor, Plot No. 66, Prakash Industrial Estate, Sahibabad, Ghaziabad",Delhi,Delhi,Mahinder Singh,,"9*10*20077,  9*116*7677",All Over South,"Supplier, Booking",,*rzootptcorp@gm*il.com,,,
Asha Cargo Movers Pvt. Ltd.,"25, Khanna Market, Tis Hazari, Delhi-110054",Delhi,Delhi,Sushil Jain,"011 - 2*946602,  2*92*092,  27**199*,  27**1996,  *2220701,  *2220401",,"Daily Services : Agra, Allahabad, Basti, Mathura & All Over U.P.",Booking,"HCV, LCV",,,,
Ashirwad Roadlines,"BG-552, Sanjay Gandhi Transport Nagar, Delhi-42",Delhi,Delhi,Rajesh Mutreja,011 - 42*6*271,"9*99*100*0 ,  9*1114*64*",All Over Maharashtra,Supplier,HCV,,,10 Wheeler,"Food,  Food Grain"
Ashirward Transport Co.,"AW-9, Sanjay Gandhi Transprot Nagar, Delhi-42",Delhi,Delhi,Naresh,,"9*1**6*620,  9266661920,  9*10**71**","Service : Ruderpur, Kashipur, Haldwani, Lalkun, Muradabad",Supplier,HCV,,,"10 Wheeler,  12 Wheeler",All Type Material
Ashok Roadlines,"157, Transport Centre , Azadpur, Delhi",Delhi,Delhi,Bablu Kumar,,9**0**7766,"Full Truck Available For Nimach, Ratlam, Indore & All M.P.",Booking,LCV,,,"10 Wheeler,  12 Wheeler,  1109,  407,  Canter",All Type Material
Ashok Tempo Transport Service,"3-A, Meera Tower, Industrial Area, Delhi - 52",Delhi,Delhi,Ashok Ji,"011 - 27*761*2,  27*7462*,  27*7**92","9212*2010*,  9212491*46,  9*10216207","U.P., Haryana, Punjab. Special Services For Punjab, Jammu, Chandigarh, Mumbai",Booking,LCV,**hoktempotr*n*port@.y*hoo.com,,"10 Wheeler,  12 Wheeler",Industrial Goods
Ashoka Logistic,"Pocket D-14, Flat NO.190, 2nd Floor, Opp. Metro Piller No. 414, Sec-7, Rohini, Delhi -85",Delhi,Delhi,S. K. Swami,011 - *2*2*149,9*102261*6,"C.G., Jharkhand ,Bihar,M.H.",Booking,,**hok*.ho@gm*il.com,,"10 Wheeler,  12 Wheeler",All Type Material
Ashoka Road Carrier,"Giani Border, Opp. N.E.C.C. G.T. Road, P.O. Chikamberpur, Ghaziabad",Delhi,Delhi,Dinesh & Ashok,"0120 - 2622229,  262**29",9*1224*717,All Over India,Booking,HCV,upgc**hok@y*hoo.in,,"10 Wheeler,  12 Wheeler",Steel
Ashoka Trailer Roadways,"Baba Hari Das Nagar, Tikri Border, New Delhi",Delhi,Delhi,Surender Singh,011 - 2***14*4,"9*11097*0*,  90*077**99","Service All Over Chhattisgarh, Himachal, U.K., J & K",Supplier,"HCV, LCV",,,,
Ashoka Transport Agency,"B-13, OLD MARKET MANGOLPURI, PAHSE 1, DELHI- 84",Delhi,Delhi,Mansingh,,9*1222*916,All Over India,Booking,"HCV, LCV",,,"Tempo,  10 Wheeler,  12 Wheeler",All Type Material
Ashoka Transport Co. (Regd.),"6th Mile Stone, Near Mata Mandir, Delhi U.P.- Border, Ghaziabad",Delhi,Delhi,Hansraj,"0120 - 221*0691 ,  22140***",9*1101**4*,"Special For Bihar, Bengal, Orissa, Jharkhand And All Over India",Booking,"HCV, LCV",,,"Trailer,  10 Wheeler,  12 Wheeler",Tiles
Ashoka Transport Corp.,"8 / 36, Vijay Nagar, Dubie Storey, Delhi - 9",Delhi,Delhi,"Ashok Kumar , Suresh Kumar",,"9*122*6676 ,  9*960*2*77",All Over North India,"Supplier, Booking",HCV,**hok*tr*n*portcorp@gm*il.com,,10 Wheeler,"Coal,  Steel"
Ashoka Transport Corp.,"Plot No. 239, Patpad Ganj, Industrial Area, Delhi - 92",Delhi,Delhi,Raghuveer,011 - *2961*17,9*124*9907,Daily Parcel Service : Delhi To Dehradun Entire Uttranchal & H.P.,Booking,LCV,*tcdelhi@gm*il.com,,"1109,  405,  407 Ton",Parcel Services
Ashoka Transways Service Pvt. Ltd.,"H.O, Alipur",Delhi,Delhi,Ashok Avdesh,"011 - 2770*447 ,  2770*676 ,  *2*2*149 ,  2*62*291","9*104261*6 ,  9**0*1**41",All Over India,Booking,"HCV, LCV",,,,
Ashu Road Carriers,"CW-532, Sanjay Gandhi Transport Nagar, Delhi- 42",Delhi,Delhi,D.N. Mishra,011 - 27**649*,9*1026*422,"Full Truck Load All Rajasthan, U.P., Uttaranchal","Supplier, Booking","HCV, LCV",mi*hr*ro*dc*rrier.dn@gm*il.com,,"10 Wheeler,  12 Wheeler,  6 Wheelers",All Type Material
Asian Road Line,"Transport Complex, Main Rohtak Road, Tikri kalan, Delhi",Delhi,Delhi,Randhir Kaushik,"011 - 2*****0* ,  2***11** ,  2***22**",9*101**2*1,Full Truck Load For All Over India,Booking,"HCV, LCV",,,"10 Wheeler,  12 Wheeler",Steel
Asian Roadways,"AG-450 , Sanjay Gandhi Transport Nagar, Delhi - 42",Delhi,Delhi,Atul Gupta,"011 - 4**720**,  27**740*","9*104*2*00,  9*101*2*00",Full Load & ODC Bokking For All Over India,Booking,HCV,**i*nro*dw*y*@ym*il.com,,"Tempo,  Trailer,  Container,  10 Wheeler,  12 Wheeler",Industrial Goods
Asian Transport Service,"C-27, Mansrover Garden, New Delhi - 15",Delhi,Delhi,Surender,"011 - 2*4*2*47 ,  2*1166**",9*1**29292,All Over India,"Supplier, Booking","HCV, LCV",**i*n.tpt@gm*il.com,,"10 Wheeler,  1109,  407 Ton","Industrial Goods,  Machinery"
Asiatic Transport Co.,"210 / 8551, Gulshan Guest House, Roshanara Road, Delhi",Delhi,Delhi,B.M. Kaushik,"011 - 2**20119 ,  2**22117",9910407*7*,Full Truck Available For All Over India,Booking,"HCV, LCV",,,,
Assam Bengal Orissa Roadlines (R),"Shop No.2, Main Road, Near Shibbal Cinema, Badarpur, Delhi - 44",Delhi,Delhi,Jaswant Singh,"011 - 269962** ,  26997*** ,  29*91*** ,  29*9*9**",,"Full Load / Part Load Available For U.P., Bihar, Bengal, Orissa & Assam",Booking,LCV,,,"1109,  407 Ton",All Type Material
Assam Bengal Road Carriers,"Plot. No - 7, Pushpa Bhawan, By Pass Road, Badarpur Border, Faridabad, Haryana",Delhi,Delhi,"PraveenYadv, Birpal Yadav",0129 - 22*04*0,"99****7742 ,  **606***62 ,  99****77*2","Full/ Part Load Service For : Bihar, Bengal, Orrisa, Agartala, M.P., U.P., Kerla & All Over India",Supplier,LCV,,,1109 Ton,All Type Material
Assam Bengal Roadways Ltd.,"57/F, Plot No - 9, Gadodia Road, Anand Prabat, Delhi 5",Delhi,Delhi,Pyarelal,011 - 2*7164*0,9*1*0*7*27,All Over India,Booking,"HCV, LCV",,,"Trailer,  10 Wheeler,  12 Wheeler",All Type Material
Assam Bombay Cargo Carriers,"Khasara Road No - 358, Kohali Chowk, Bijaswan, Delhi",Delhi,Delhi,"Rohit Aggrawal , Rajender Sharma",,"9**004260* ,  9**0**24*6 ,  9*100*24*7,  9*1*04260*",Daily Parcel Service : Delhi-Mumbai-Delhi,Booking,"HCV, LCV",****mbomb*y@rediffm*il.com,,"10 Wheeler,  12 Wheeler,  6 Wheelers",Parcel Services
Assam Bombay Corp.,"Shop No - 2, Jain Market, G.T. Karnal Road, Libaspur, Delhi",Delhi,Delhi,Sarnunder Singh,011 - 27**1***,"9*12*06*76,  9*1*7191*0,  9999414496","Full Truck Available For Assam, Bengal, Gauhati, Nagaland, U.P., Meghalaya",Supplier,HCV,,,"10 Wheeler,  12 Wheeler,  18 Wheeler",Food Grain
Assam Calcutta Roadways,"6th Mile Stone , U.P. -Border, Delhi",Delhi,Delhi,Dharmpal,0120 - 2614*7*,"9971*44*62,  9717*6*700","Service ;- Bihar, Bengal, Assam, & Orissa",Supplier,HCV,,,"10 Wheeler,  12 Wheeler",Parcel Services
Assam Golden Transport Company (Regd.),"Shop No- 07, 2nd Floor, Sarai Pipal Thaila, Delhi - 33",Delhi,Delhi,Yash Pal Singh,011 - 27**0*19,"92*04*12** ,  997162**71","All Over Delhi, Bihar, Assam",Supplier,"HCV, LCV",,,"10 Wheeler,  12 Wheeler","All Type Material,  Food"
ATC Express Logistic,"1436/193, Military Road, New Rohtak Road Crossing, Karol Bagh, New Delhi",Delhi,Delhi,Gaurav Maggo,011 - *299*992,"9*1**10497,  9*106*4*14",All Over South India,Booking,,,,"Trailer,  10 Wheeler,  12 Wheeler",All Type Material
Ayaan Roadliens,"49, Ashoka Market, Old Subzi Mandi, Delhi-07",Delhi,Delhi,Manoj Agarwal,011 - 6**69467,9*100207**,All Over India,"Supplier, Booking",LCV,,,"1109,  405,  407 Ton",All Type Material
B.N. Roadways,"372 , Transit Camp , Govindpuri , Delhi.",Delhi,Delhi,"Badrinaryan, Ramkumar",011 - 299*2716,"9*122*2716,  9*112*2716","Canter, Tata, & Full Truck Service For All Over India & Nepal",Supplier,LCV,,,,
B.S. Cargo Movers,"Shyam Enclav , Nittco Wali Gali , U.P. Border , sahibabad , Ghaziabad",Delhi,Delhi,Yeshwant Sharma,0120- 261*60*,9*9116*962,Full Load Service - Delhi To Kolkata,Booking,,*hiv*h*ktiro*dw*y*@y*hoo.in,,"10 Wheeler,  12 Wheeler",All Type Material
B.S. Road Carrier,"239, Giani Compound Giani Border G. T Road, Ghaziaba.",Delhi,Delhi,V.N . Gaurgh,0120 - 41040*1,,Local Area Service,Booking,LCV,,,"Tempo,  Tata Ace ,  407,  709,  909",Medicine
B.S. Roadlines,"CW -266, S.GTN Delhi-42",Delhi,Delhi,Gurpeet Singh,,"9*111**122,  9**9**9*92 ","Kolkata Line East Side Spl:- 32,34 Feet Container Available Kolkata ,Patna",Supplier,HCV,g*k*hlon7878@gm*il.com,,"Container,  32 Ft. ,  34 Ft.",Chocolate
B.V. Road Carriers,"Plot No.4, Kavita Colony, Nangloi Delhi - 41",Delhi,Delhi,"Vikram Mehta, Bhushan Bhasin",,"9*100*7920,  9*1141**4*,  9*1227409*","Local Delhi, Haryana, U.P , Rajasthan",Supplier,"HCV, LCV",,,"Truck,  10 Wheeler,  6 Wheelers",
Baba Cargo Carriers,"Shop No.- 48 , Badam Singh Market N.H. No.8, Near Radisson Hotel, Rangpuri , Mahipalpur Road New Delhi",Delhi,Delhi,"Vipin Tripathi , Vinay",,"9**077220*,  9717*7*602","Daily Service Kanpur Allahabad, Varanasi , Agra And All Over U.P",Supplier,LCV,,,"Tempo,  Truck,  407,  709,  909,  1109,  1110",All Type Material
Baba Dev Puri Road Lines,"CW - 48 , Shop No.- 6, 1st Floor, S.G.T.N. Delhi - 42",Delhi,Delhi,Ashok,,9*1*66224*,All South India,"Supplier, Booking",HCV,,,"10 Wheeler,  12 Wheeler",Parcel
Baba Haridas Transport Co.,"107/924 , Jharoda kalan , New Delhi",Delhi,Delhi,Pawan Kumar,,"9212291*9* ,  9212*01*9*","Truck Available For Delhi To Kandla, Gujarat ","Supplier, Booking",HCV,bhtcdelhi@gm*il.com,,"Trailer,  10 Wheeler,  12 Wheeler","Rice ,  Wood ,  Plastic"
Baby Tempo Transport Service,"68, Ashoka Market, Old Subzi Mandi , Delhi.",Delhi,Delhi,"B. M. Anand, R. K. Anand, Manoj Anand","011 - 2*97**74,  2*97***0,  2*9*60*7,  2*974007","9*100207** ,  9**0***607 ","Tata DCM, Canter: Punjab, H.P, J&K, & All Over India",Booking,LCV,,,,
Bahadurgarh Jain Goods Transport Company,"32A , New Qutab Road , Teliwara , Delhi-6",Delhi,Delhi,Shanti Parkash Jain,011 - 2*612*9*,"9*71**1**6,  *74**64470",Daily Parcel Service For Delhi To Najafgarh & Badalgarh,Booking,LCV,,,"Tempo,  6 Wheelers",All Type Material
Bajaj Cargo Carriers,"12/7, Subhash Nagar , New Delhi.",Delhi,Delhi,Satish Bajaj,,"9*11*2*2*4 ,  9*10*2*2*4 ",Full Load - Delhi To Mumbai To Delhi,"Supplier, Booking",HCV,,,"Container,  32 Ft.",All Type Material
Bajaj Tempo Service,"2/148, Geeta Colony, Delhi-31",Delhi,Delhi,"Davinder Bajaj, Vipin Bajaj","011 - 22*40622 ,  22466667,  22440622","9*1029*4*6 ,  921*666161","Tata-407, 709, & Full Truck Available For Delhi, U.P., Har., Punjab, Raj. & H.P All Over India",Supplier,,b*j*jtempo*ervice@y*hoo.com,,"Tempo,  Truck,  407,  709,  909,  1109,  1110",Carton-Box
Bajrang Bali Goods Transport Co.,"Shop No.5 , A-14 . Ambey Garden , Jain Market , Libaspur , Delhi",Delhi,Delhi,Satpal Arora,"011 - 27**0277,  *2410277",9911490277 ,"Lorry Service - Raj., M.H, Pb., Guj.",Supplier,,,,,All Type Material
Bajrang Freight Carrier,"3 , Rajendra Market , Tis Hazari , Delhi.",Delhi,Delhi,"Sanjay Kumar, Satish Mishra",011 - 2*9**471,9*101*1991 ,"Daily Parcel Service Alwar-Delhi-Alwar, Rajasthan","Supplier, Booking",LCV,,,"Tempo,  4 Wheeler To 6 Wheeler",All Type Material
Bajrang Tempo Transport Co.,"Shop No.- A- 83 , Mandoli Extension , Near New Nand Nagri Thana , Main Wazirabad , Delhi.",Delhi,Delhi,Ashok Kumar Tyagi,"011 - 22*41*21,  22*41621","9*10211271,  9*10211272,  9*10*10704",Full Load & Part Load - All Over India,"Supplier, Booking",,,,,
Bajrang Transport Co.,"6, 4122, Naya Bazar,Delhi - 6",Delhi,Delhi,Chandra Bhan,011 - 2*916*02,996*04*4**,"Full Truck Load Only Local - Alwar ,Nagar, Sikri,Phadi, Malakheda",Booking,HCV,,,"Truck,  6 Wheeler",All Type Material
Bajrang Transport Service,"CW-224 , 2nd Floor , Sanjay Gandhi , Transport Nagar , Delhi.",Delhi,Delhi,"Manoj , Kuldeep","011 - 27**1110,  47*61110,  6***7201","9*10**669*,   9999**669*,   996***7209,   *010**7209","All U.P. , Bihar , Jharkhand , Bengal , Kolkata , Orissa .",Supplier,LCV,,,"6 Wheelers 1109 ,  1110",All Type Material
Bajwa Transport Corporation,"H.S. Bajawa Compound ,7 th Mile Stone , Delhi U.P. Border , Sahibabad , Ghaziabad",Delhi,Delhi,H. S . Bajwa,,"9910*9*24*,  9*10492*7* ,  96*09**416 ,  *4*9*04*2*",Full Load - All Over India,"Supplier, Booking",,b*jw*tptco@gm*il.com,,,All Type Material
Bakshi Carrier Service,"RZH- 19 , Raghu Nagar , Pankha Road , New Delhi - 45",Delhi,Delhi,"Ashok Bakshi , Sunny Bakshi",011 - 2***17**,9*10*6060* ,"Tata, Canter, Full Truck Available For Delhi, U.P, Uttranchal, Rajasthan, Haryana Punjab, Gujarat, Maharashtra & All Over India",Booking,"HCV, LCV",,,"Tempo,  Truck,  Trailer,  Container,  ODC Cargo,  10 Wheeler,  12 Wheeler",Electronics Goods
Bakshi Transport Carrier,"D-22B , Rajouri Garden , New Delhi - 27",Delhi,Delhi,"Simran, Karamjit Singh","011 - 6*9*7090,  2*191647","921221671* ,  99901***22","Full Load For India , Bangladesh, Spl. In ODC Household Goods Truck , Trailer",Supplier,HCV,B*k*hitptc*rrier@gm*il.com,,"Container,  32 Ft.",House Hold Goods
Balaji Cargo Carriers (India),"Udai Bhan Yadav Building, Opp.- Raj Singh Complex , Kapashera New Delhi",Delhi,Delhi,Anand Kaushik,011 - 2*061096,"9*10447167,  9*10061096",Household Goods And Car Movers - All Over India,"Supplier, Booking","HCV, LCV",,,,"All Type Material,  House Hold Goods, Auto Parts"
Balaji Cargo Management Service,"321 , Apsara Complex , Ghaziabad",Delhi,Delhi,"Mahender Goel, Vinod Goel",0120 - 4271277,"9*10214177 ,  99999926*1",Full Truck Available For All Over India,Booking,HCV,info@b*l*jim*il.com,,"Trailer,  ODC Cargo,  10 Wheeler,  12 Wheeler,  10 Wheeler To 40 Wheeler",All Type Material
Balaji Freight Carriers Pvt. Ltd.,"BG-354 , Sanjay Gandhi Transport Nagar , Delhi.",Delhi,Delhi,Ghanshyam Goel,"011 - 27**24**,  27**199*,  27**7777","9*101166**,   9***77*077",Daily Parcel Service Delhi-Mumbai-Delhi,Booking,,b*l*jidelhi@y*hoo.co.in,,,
Shree Balaji Roadways,"A - 64 , Temple Colony , Samaypur , Delhi.",Delhi,Delhi,S.K. Sharma,011 - *2**9090,,"Full Truck Available For Meerut, Haridwar, Saharanpur & All Over U.P.",Supplier,,,,"Tempo,  Truck,  10 Wheeler,  6 Wheelers",All Type Material
Balaji Roadlines,"Shop No.6 , Main Rohtak Road , Swaran Park , Mundka , Delhi",Delhi,Delhi,Narender Kumar,011 - 2**4*940,9*1*2*9761 ,"Truck & Mini Truck Available All Maharashtra , Gujarat , Mumbai .","Supplier, Booking",,,,,
Balaji Tempo Transport Service,"C-130 , Amar Colony , Main Wazirabad Road , Delhi.",Delhi,Delhi,Naresh,011 - 22*1**17,9*10*4*926,"Full Load - U.P. , Raj. , U.K. , Gujarat .","Supplier, Booking",LCV,,,"Tempo,  Truck,  6 Wheelers ,  1109",All Type Material
Balaji Transport Co.,"A-35 , Shyam Enclave , Gyani Border , Sahibabad , Ghaziabad.",Delhi,Delhi,"Pawan Bansal , Sunil Bansal",,"9*12**1**1,  9*104*1166,  921277197*",Full Truck Service - Only Assam,Supplier,"HCV, LCV",,,"Tempo,  Truck,  Trailer,  Container,  10 Wheeler,  12 Wheeler",
Balak Transport Co.,"Shop N0.- 139 , Transport Centre , New Subzi Mandi , Azadpur , New Delhi",Delhi,Delhi,Nasir,011 - 4179*704 ,"9*11*6*1*1,  9**06*2170","Full Truck Available For U.P., Bilaspur, Chandausi, Ghaziabad., Rampur, Hapur, Sambhal",Supplier,"HCV, LCV",,,"Tempo,  Truck,  Trailer,  10 Wheeler,  12 Wheeler",All Type Material
Balwan Road Carriers (Regd.),"F-9/69 , Sector-15 , Rohini , Delhi.",Delhi,Delhi,Balwan Singh,"011 - 27**2272,  *2*2*9*9",9*111*04*9,"Container For All Over India , Special Service - South India",Booking,HCV,,,"Container,  32 Ft.",Electronics Goods
Banaras Goods Transport Corporation,"Shop No. - 207, Kamla Market , New Delhi - 2",Delhi,Delhi,K. L. Rai,"011 - 2*2***0*,  2*21*490","9*1071*21*,  9211**2*00 ",Daily Parcel Booking For Delhi To Mumbai To Delhi,"Supplier, Booking",LCV,,,,
Banga Delhi Roadways,"AW-499, 1 st Floor, Sanjay Gandhi Transport Nagar, Delhi-42",Delhi,Delhi,Ajit Singh,"011 - 27***1*4,  27***00* ,  42*641*4",9*110741*2 ,"Full Truck Available For Punjab , Haryana","Supplier, Booking",,,,,
Bangalore Madras Roadways,"Shop NO.-13 , Molarband Extension , Near MCD School , By-Pass Road , Opp. -Sector-37 , Badarpur , New Delhi - 44",Delhi,Delhi,Brahm Singh,"011 - 64*7**00,  *299**00","9*11410*00,  9212760*00","Lorry Supplier - Bangalore, Hyderabad , Vijayawada, Madras, Cochin, Madurai , All South India",Supplier,LCV,,,"Truck,  6 Wheelers ,  1110",Industrial Goods
Bangla Baba Goods Carrier,"Shop No.- 204/1 , Sarai Pipal Thala , Azadpur , Delhi -33",Delhi,Delhi,Sanjay Misra,,"99110016**,  9*112***79,  9*72***997",Lorry Service - All Over India,"Supplier, Booking",LCV,,,"Tempo,  Truck,  Container,  10 Wheeler,  12 Wheeler,  407,  709,  909,  1109,  1110",Industrial Goods
Banglore Calcutta Roadways,"Plot No.- 69 , Gali No.- 1 , Near Apsara Complex , U.P. Border , Ghaziabad",Delhi,Delhi,"Manjeet Singh , Kuldeep",,"9*122192*2,   *2***40*2*","Full Truck Available For Assam, Bihar, Bengal, Calcutta",Supplier,,,,,
Banglore Poona Roadways (Regd.),"CW-642 / AW - 4 , Sanjay Gandhi , Transport Nagar , Delhi-42",Delhi,Delhi,Ishaer Singh,,"9*10021*0*,  9*1**21*0*,  9*700200*7","Lorry Service - Punjab , Maharashtra , U.P. , Karnataka",Supplier,HCV,,,"Truck,  10 Wheeler,  12 Wheeler,  6 Wheelers","All Type Material,  Parcel"
Bansal India Transport Co. / Shatabdi Express Roadways,"428/3 , Rani Khera Road , Near Government School , Mundka , Delhi - 41",Delhi,Delhi,"Rahul Bansal ,R. B. Bansal",,"9212714414,  9*12**2414,  9*100*2414","Rajasthan , Punjab , Bihar & All Over India","Supplier, Booking","HCV, LCV",rb*er.2000@gm*il.com,,"Tempo,  407",All Type Material
Bansal India Transport Corporation,"Opp. Police Chowki , U.P. Border , Ghaziabad.",Delhi,Delhi,S. P. Bansal,,"9*1**4*6**,  **60**60*4",Full Load Service - All Over India,Booking,"HCV, LCV",,,"Tempo,  Truck,  Trailer,  Container,  10 Wheeler,  12 Wheeler",All Type Material
Bansal Road Carriers,"Near Mahavir Dharam kanta , Shekhawati Compound , Ghaziabad.",Delhi,Delhi,"Yogesh Aggarwal, Mukesh Aggarwal",,"9*1***62*4,  9*10*7**21,  9*10*4*11*",Full Load & Part Load - Punjab & Jammu & Kashmir,"Supplier, Booking","HCV, LCV",,,"Truck,  10 Wheeler,  6 Wheelers",All Type Material
Bansal Roadways,"BG-573 , Sanjay Gandhi Transport Nagar , Delhi",Delhi,Delhi,"V. P. Bansal , Rakesh Bansal","011 - 27**1**0,  27**129*","9**0*1129* ,  9*1*27249* ,  9**0*1129*","Truck Available For. Coimbatore , Cochin , Bangalore , Hyderabad & South India","Supplier, Booking",,,,"Truck,  Container,  10 Wheeler,  12 Wheeler,  6 Wheelers ,  32 Ft.",Parcel
Bareilly Shahjahanpur Freight Carrier,"Opp.- Telephone Exchange , Near Shani Mandir , U.P. Border , Ghaziabad.",Delhi,Delhi,"Davinder Singh , Amardeep Singh",0120 - 26216*6 ,"991096*249,  9*7171*76* ,  94*77279*6",Service - All Over U.P. & Uttarakhand,Supplier,HCV,,,"Truck,  9 Ton, 15 Ton",All Type Material
Barielly Express Transport Co.,"BG-344 , Sanjay Gandhi Transport Nagar , Delhi",Delhi,Delhi,Jagjit Sethi,"011 - 27**2*47,  27**1927,  2*67*0**","9*1**0*004,   *2*720*004 ","Full Load & Parcel Booking For Moradabad , Rampur , Bareilly , Pilibhit , Sitapur , Lucknow All Over India",Booking,HCV,,,"Truck,  6 Wheelers",All Type Material
Barkha Roadways,"Chug Warehouse , Old Seema Puri Road , U.P. Border , Delhi - 95",Delhi,Delhi,Rambir Jhakad,,"9*10**661* ,  92121*661*","Lorry Service - Bihar, Bengal, Assam & Orissa",Supplier,HCV,,,"Trailer,  10 Wheeler,  12 Wheeler,  14 Wheeler ,  18 Wheeler",Parcel
Basethia Goods Carrier,"Nangloi Najafgarh Road , Ranhola Village , Near Gopal Dharma Kanta , Nangloi , Delhi-41",Delhi,Delhi,"Anil, Bablu",,"9*119**7*7,  9*91691*6*,  09*1*9**7*7","Lorry Service - Rajasthan , Haryana",Supplier,LCV,,,"Tempo,  Truck,  1109,  1110",All Type Material
Batala Guwahati Roadways,"Gali No:-2 , Apsara Complex , Delhi U.P. Border ",Delhi,Delhi,Mahavir,,9*91697*20,"Lorry Supplier - Guwahati , Assam",Supplier,HCV,,,"10 Wheeler,  12 Wheeler",Parcel
Batra Freight Carrier,"CW-168 , Sanjay Gandhi Transport Nagar , Delhi.",Delhi,Delhi,Devender Pal singh,,"9*10**0019,  9*112*2*** ,  9*10**0019",Daily Parcel Service Delhi To Saharanpur & Full Load - All Over India .,Booking,"HCV, LCV",,,"Tempo,  Truck,  10 Wheeler,  6 Wheelers",All Type Material
Batra Tempo Transport Service / Batra Cargo Movers,"CB - 383 / 7, Ring Road , Naraina , Delhi.",Delhi,Delhi,"S. R. Batra, Rajan Batra","011 - 2*77*777,  2*77*000","92117*7021,   92117*7022",Full Load - All Over India .,Booking,"HCV, LCV",,,"Tempo,  Truck,  Trailer,  Container,  ODC Cargo,  10 Wheeler,  12 Wheeler",All Type Material
Beas Road Carrier,"Shop No.- B-1162 , Transit Camp , Govindpuri , Near Okhla Gol Chakkar, New Delhi",Delhi,Delhi,"G S. YADAV., Raju",011 - 29994*12,"9*1292*6*4,  9**0001792,  9*10001792","Service For Delhi ,U.P' , M.P, Haryana, Rajasthan, Punjab, Karnataka, Andhra Pradesh, Gujarat, Tamil Nadu, & All Over India","Supplier, Booking",,,,"Tempo,  Truck,  909,  1109,  1110",All Type Material
Bedi Freight Carriers,"BG-523, Sanjay Gandhi Transport Nagar, Delhi-42",Delhi,Delhi,Kuldeep Bedi,,"92120*42*7,  9*1169*0*7 ","Full Load Booking For All Over Mumbai, Delhi. Maharashtra",Supplier,,,,,
Bee Kay transport Corp.,"Shop No.- 1330 , Faseel Road , Ajmeri Gate , Delhi - 6",Delhi,Delhi,Akshay,"011 - 2*2*0*12,  *2927129",9**02*9270 ,"Full Pat: Mathura To Delhi, Hyderabad. Vijaywada, All Over V","Supplier, Booking",,,,"Truck,  6 Wheelers 1109 ,  1110",All Type Material
Bengal Freight Carrier,"7th Mile Stone , Delhi U.P. Border , Ghaziabad.",Delhi,Delhi,"Upender Singh , Gorakh Nath Yadav","0120 - *10*619,  2624011","9*121*4619,   9*1*261191","Truck Supplier - Bengal, Bihar. Assam, Orissa Kolkata",Supplier,HCV,,,"Truck,  10 Wheeler,  12 Wheeler,  6 Wheelers",All Type Material
Shree Babosa Logistic,"315/6/1 , B203 , Daya Basti , Old Main Rohtak Road , Delhi.",Delhi,Delhi,Sajjan Jindal,"011 - 2*64*41*,  *2*70606",9*1004977* ,Full Load Booking For Calcutta Line,Booking,HCV,,,10 Wheeler,White Goods
Bengal Orissa Roadways,"Rajpal Colony , By Pass Road , Badarpur Border , Faridabad.",Delhi,Delhi,"Rajkaran Yadav, Kuwar Pal",0129 - 22*092*,"9*1**64*99,  9*11214*29",Full Load - All Over North East India & Nepal .,Supplier,LCV,,,"Tempo,  Truck,  6 Wheelers ,  1109",Industrial Goods
Beriwal Carrying Corporation,"19/310 , Daya Basti , Old Rohtak Road , Delhi.",Delhi,Delhi,"Kuldeep , Manoj",,9*10102700,"Part & Full Load Accepted For All India & Special Service - M.P., Raj., Hyd., South Guj., Assam",Booking,HCV,,,10 Wheeler,All Type Material
Best Cargo Carriers Pvt. Ltd.,"511 , M.G. House-1 , 2 , Community Centre , Wazirpur Industrial Area , Delhi.",Delhi,Delhi,"Vinod Mittal , Naresh Sharma","011 - 27*74644,  27*77644","9*11*476*6,   9*7*7026**",Full Load - All Over India,Booking,LCV,info@be*ttr*n*portindi*.com,,"Tempo,  Truck,  407,  709,  909,  1109,  1110",All Type Material
Best Deal Cargo,"A-18 , Sai Complex , Sanjay Gandhi Transport Nagar , Delhi-42",Delhi,Delhi,Deepak Sharma,011 - 27**6277,"9*10044277,  9*10144277",Full Load Service All Over India,"Supplier, Booking","HCV, LCV",,,"Truck,  10 Wheeler,  12 Wheeler,  6 Wheelers","Rice ,  Wood ,  Plastic"
Best India Lorry Broker,"16-17, Guru Nanak Market , GT Karnal Road , Libaspur , Delhi",Delhi,Delhi,Vijay Kumar & Sanjay Kumar,011 - 64*2**0*,"9212*0766*,  9*1****22*","Lorry Service - Bihar Jharkhand, Bengal, Assam, Orissa, & All Over India",Supplier,,,,"10 Wheeler,  12 Wheeler",All Type Material
Best India Tempo Transport,"Chaman Lal Main Market , Alipur Road , Bhorgarh , Delhi.",Delhi,Delhi,Sukhbir Bhardwaj,011 - 277*1***,9*107***2*,Full Load - All Over India,Supplier,LCV,,,"Tempo,  Truck,  4 Wheeler To 6 Wheeler",All Type Material
Best Logistics Solution .,"9/49 , Industrial Area , Kirti Nagar , Opp.- Railway Station , New Delhi.",Delhi,Delhi,Inder Mohan Singh. Arvind Singh,"011 - 4*0721**,  4*072144","9*11427*9*,   9*1114*060",Full Load All Over India & Special Service - Punjab .,"Supplier, Booking",,,,,
Best Orient Carriers,"AG-459, Sanjay Gandhi Transport Nagar, New Delhi",Delhi,Delhi,B. S. Atwal,"011 - 42*60011,  27**2129,  27***129","9*1002*927,   9971172226 ","Lorry Supplier - M.P , Maharashtra , Chhattisgarh",Supplier,HCV,,,"Truck,  10 Wheeler,  12 Wheeler",All Type Material
Best Transport,"C-126 , Naraina Industrial Area, Phase-I, New Delhi-28",Delhi,Delhi,Harminder Singh,"011 - 41411*79,  *0***770,  41410279","9*10*7**7*,  9**004**04,  92124*0*22,  92127*6*7*","Full Load & Part Load - All Over India & Special Service For Chandigarh, Ludhiana",Booking,LCV,be*ttr*n*port002@gm*il.com,,"Tempo,  Truck,  909,  1109,  1110",All Type Material
Baghel Golden Transport,"Gate No.3 , Parkesh Indastrial State ,Pipe Market Near Shree Ram Dhram Kanta , Gyani Boder , Sahibabad , Ghaziabad.",Delhi,Delhi,"Mukesh Kumar , Rakesh",0120 - 6401721,"9*91**7411,  *7*014*492","Lorry Service - Mthura , Agra , & All Over U.P.",Supplier,LCV,,,"Tempo,  Truck,  407,  709,  909,  1109,  1110",All Type Material
Bhagwat TPT Organisation Ltd.,"Shop No.- 16/117 ,1st Floor , Gali No:- 5 , Karol Bagh , New Delhi.",Delhi,Delhi,Anil Panjeta,011 -  2*62*406,"9971*6*626,  9*1***60*2",Full Load Booking All Over India,Booking,HCV,delhibtol@gm*il.com; *nilbtol@gm*il.com,,"Truck,  Trailer,  Container,  10 Wheeler,  12 Wheeler",All Type Material
Bhagwati Cargo Packers & Movers,"Chunna Bhatti Road , U.P., Border , Delhi",Delhi,Delhi,Rajendra Sharma,,"9*12990*06,  9*11727676,  91*6*6*6*6",All Over India,Booking,LCV,,,"Tempo,  Truck,  407,  709,  909,  1109,  1110","House Hold Goods , Auto Parts"
Bhagwati Goods Carriers,"Shop - 34 , Transport Centre , New Subzi Mandi , Azadpur, Delhi- 33",Delhi,Delhi,Puran Chand,011 - 27671064,9.*1221E+79,Full Load & Part Load Booking - All Over India,Booking,"HCV, LCV",,,"Truck,  10 Wheeler,  12 Wheeler",Fruits
Bhagwati Roadlines,"6th Mile Stone , Vimal compound , U. P. Border , Ghaziabad.",Delhi,Delhi,S .K . Sharma,,9*119**794,"Full Truck Available For U.P. Bihar, Bengal, Assam .",Booking,HCV,,,"Trailer,  10 Wheeler,  18 Wheelers",All Type Material
Bhagwati Roadways,"Shop No.- 1 , New Shop Khanna Market . Tees Hazari Court , Delhi",Delhi,Delhi,Krishan Kumar,,9212**091*,"Parcel Booking - Delhi , Panipath",Booking,LCV,,,"Tempo,  1109",Clothes
Bhagwati Transport Co.,"Plot No.-547 , Main Delhi Rohtak Road , Tikri Kala , New Delhi- 41",Delhi,Delhi,B.S. Gill,"011 - 2***1602 ,  2***1600","9*99*0761* ,  *447*2****","Tata, Canter, Jumbo , Available For Bombay, Pune, Goa & All Over India",Supplier,LCV,,,"Tempo,  Truck,  407,  709,  909,  1109,  1110",Industrial Goods
Bhagwati Transport Of India (R),"6th Mile Stone, Opp. Mata Mandir U.P. Border P.O. Chikamberpur , Ghaziabad Head Office - Shop No.- J - 150 , Old Sheemapuri , Shadara , Delhi - 95",Delhi,Delhi,Ramakant Sharma,011 - 22****4* ,"9*106160*6,  9*1*0111** ","Full Truck Available For Rajasthan , Haryana , Gujarat & All Over India",Booking,"HCV, LCV",,,"Tempo,  Truck,  Trailer,  10 Wheeler,  12 Wheeler",All Type Material
Bhai Bhai Cargo,"Shop No.- 3444, Gali Lallu Missar, Qutab Road, Singhara Chowk, Sadar Bazar, Delhi",Delhi,Delhi,Mahendra Bhai,,"9**0*66*07,  9**0229612 ",Door To Door Delivery By Air & Train All Over India,Booking,,,,,
Bhai Bhai Transport Co.,"Vimal Compound ,6th Mile Stone ,Delhi - U.P., Border , Post Office - Chikamberpur , Ghaziabad.",Delhi,Delhi,Dinesh,,9*992**4**,Full Load - All Over U.P.,Supplier,HCV,,,,
Bhangu Roadlines,"Opp .- TCI , Near Singh Petrol Pump , Main Road Shahibabad , Ghaziabad",Delhi,Delhi,Daljeet Singh,,"99990077*9,  9*111**9*9","Bihar, W.Bengal Assam & Jharkhand","Supplier, Booking",HCV,,,10 Wheeler,Parcel
Bharat Agragami Parivahan,"A-72 . Nangloi , New Delhi.",Delhi,Delhi,Anand,,"996*104946,   94****7476,   996**976**","Full Load & Part Load - All Over Guwahati , Assam .",Booking,,,,,
Bharat Bhusan Carriers,"Shop No - BG-587 , Sanjay Gandhi Transport Nagar , 1st Floor , Delhi - 42",Delhi,Delhi,"Bharat Bhushan , Prem",011 - 2***2**1 ,"9*122*29*6 ,  927****170","Lorry Service - Uttrachal , Maharshtra , South",Supplier,HCV,pkum*rbbc@gm*il.com,,Container,All Type Material
Bharat Carriers,"Shop No.- 118 , Tulsi Ram Bhawan , Najafgarh Road ,S.P.M . Delhi.",Delhi,Delhi,"Surjeet , Ashok","011 - 2*104006,  2*116922","9*110**16* ,  9**0**2062",Full & Part Load Booking All Over India,Supplier,"HCV, LCV",,,14 Ft. To 40 Ft.,"Machinery,  House Hold Goods "
Bharat Freight Carriers,"Shop No.- 516 , Lahori Gate , Delhi - 6",Delhi,Delhi,Ramsaran,"011 - 2*9*2146,  2*92**70",99***11222,Parcel Booking - All Over Rajasthan .,Booking,LCV,,,"Tempo,  Truck,  6 Wheelers",All Type Material
Bharat Golden Carrier (R),"F-3 , Rawal Pindi Garden . Behind Yuvraj Complex ,Delhi U.P. Border, Ghaziabad",Delhi,Delhi,"Sunil Kumar Mahajan ,Sourabh Mahajan","0120 - 2627***,  2622*9*,  47067*0*","9*1012*976,  9**0**14**,  9*107***4*","Truck Suppler, Service: Pb., Himachal , J&K , Bangalore All Over India","Supplier, Booking","HCV, LCV",,,"Tempo,  Truck,  Trailer,  Container,  10 Wheeler,  12 Wheeler",All Type Material
Bharat Road Line (India),"AW-12, 1st Floor, S.G.T.N. New Delhi - 42",Delhi,Delhi,Attar Singh,"011 - 47**1*9*,  47**1*92","99112299*0,  9*1**60964","Service: Hyd, Nagpur, A.P., Gwalior ,Bhopal, , Pune & All Over India",Supplier,,,,,
Bharat Roadways,"Near Tele Phone Exchange, U.P Border , Ghaziabad",Delhi,Delhi,Santosh Pareek,,"9*10*6*914,  9*10*6*914",Full Load Booking - All Over India,Supplier,HCV,,,"Trailer,  10 Wheeler,  12 Wheeler",
Bharat Tempo Transport Service,"201, Kamla Market, New Delhi-2",Delhi,Delhi,"Surinder Sahni, Chandan Sahni","011 - 2*2**7*7,  2*2*91*6,  2*2*00*2,  2*2*4404","9711**11*6,  9711**11*2,  9711**1174","All Over India & Special Service - . M.P, C.G., Maha., Kar., P.B., Rak U.P., Jk","Supplier, Booking",LCV,,,"Tempo,  Truck,  407,  709,  909,  1109,  1110",All Type Material
Bharat Trailer Syndicate,"Shop No.- 339, Apsara Complex, Delhi, U.P. Border , Ghaziabad",Delhi,Delhi,Ram Singh,"0120 - 2611772,  411*164,  2626*29","9*1029*164,  9*1029*16*",Service All Over India,Supplier,HCV,,,Trailer,Machinery
Bharat Transport Agency / Jaipur Golden TPT Pvt. Ltd.,"Shop No.- 794, D.B. Gupta Road, Chapparwala Chowk, Karol Bagh, NewDelhi-5",Delhi,Delhi,L.K. Bhutania,"011 - 2**24211,  2**4779*",,Parcel Booking - All Over India,Booking,,,,,
Bharat Transport Co.,"PVC Road , Near Lantern Factory ,Tikri Kalan , New Delhi.",Delhi,Delhi,Pawan Kumar,,"09*9601601*,   9**214*142","Full Load - Mumbai, Goa .",Supplier,LCV,,,"Tempo,  Truck,  6 Wheelers 1109 ,  1110",All Type Material
Bharat Transport Co.,"CW-153, 1st Floor, Sanjay Gandhi Transport Nagar , Delhi",Delhi,Delhi,"Sanjay Sharma, Anil Pandey",,"9*119*9*** ,  971*46*460 ",All Over South India,Supplier,"HCV, LCV",,,"Tempo,  Truck,  Trailer,  Container,  10 Wheeler,  12 Wheeler",All Type Material
Bharatpur Roadlines / Buland Shahar Golden TPT.,"Shop No.- 4141, Naya Bazar, Delhi-6",Delhi,Delhi,Subhash,"011 - 2*962966,  2*9**1*2",,Parcel Booking - U.P. & Rajasthan,Booking,"HCV, LCV",,,"Tempo,  Truck,  10 Wheeler,  12 Wheeler",Auto Parts
Bhardwaj Cargo Lifter,"M-154, Gali No:- 11, Shastri Nagar, Near Inderlok Metro Station Delhi.",Delhi,Delhi,Narender Bhardwarj,011 - *2919742,"9*1167***6,  9**0**7147",All Over India,Booking,"HCV, LCV",bh*rdw*jc*rgolifter@gm*il.com,,"Truck,  Trailer,  Container,  10 Wheeler,  12 Wheeler,  4 Wheeler, 6 Wheeler",All Type Material
Bhardwaj Carrier,"B- 72 , S- 73 , 3rd Floor , Rohit House , Vishwakarma Colony New Delhi.",Delhi,Delhi,D. K. Bhardwaj,"011 - 26*64219,  26*6**14 / 1*",9*10610060 ,Full Load - All Over India,Booking,HCV,bonny@bh*rdw*jc*rrier*.com,,Container,All Type Material
Bhardwaj Carriers .,"Plot No.: E-8, Khasra No.: 35/8, Near Mohan Vilas Farmhouse, Behind Shamshan Ghat , Nanglipoona Extension , Delhi",Delhi,Delhi,Mr. Bhardwaj,,"9*10012*22,   9*10012***,   9*10012*44,   9*10012***,   9*10012*77,   9*10012*99",Full / Parcel Load Booking For All Over India,Booking,HCV,bh*rdw*j@bh*rdw*j-c*rrier*.com,www.bhardwaj-carriers.com,,
Bhardwaj Logistics,"Shop No.- 11 ,R.s Bajwa Compound ,Near. Transport Nagar , Check Post , U.P., Border ,Sahibabad , Ghaziabad",Delhi,Delhi,Naresh Kumar Sharma,0120 - 2*9149*,"9*1*6697*6,  **00142127",Full Load Booking For All Over India,"Supplier, Booking","HCV, LCV",*n*h*rm*85@gm*il.com,,"Tempo,  Truck,  Trailer,  10 Wheeler,  12 Wheeler",All Type Material
Vijendra Transport Service .,"B-374 , Transit Camp , Govindpuri , KalkaJi , New Delhi.",Delhi,Delhi,Vijender,011 - *2***609,"9*1*7*47*4,   9*1*0*6770",Full Load & Part Load - All Over India .,Booking,,bp*okhl*@gm*il.com,,"Tempo,  Truck,  407,  709,  909,  1109,  1110",All Type Material
Bhardwaj Tempo Transport Service,"Shop No.- A-1 , Main Bawana Road , SamayPur , Delhi - 42",Delhi,Delhi,Satpal Bhardwaj,"011 - 27**4***,  27***4*4","9*1*4*11** ,  921200*600",Full Load Service - All Over India,Booking,LCV,,,"Truck,  6 Wheelers","All Type Material,  Industrial Goods"
Bhardwaj Transport Company,"74, 1st Floor, Truck Market, Gulabi Bagh, Delhi",Delhi,Delhi,H.K Bhardwaj,,"9*1116*220,  9*1016*220 ",32 High Container For - All Over India & Special Service - Assam,Supplier,HCV,,,"Container,  32 Ft.",
Bharti Road Carrier,Main Rohtak Road Opp. Toll Tax Tata Telco Service Tikri b New Delhi,Delhi,Delhi,Samunder Singh,"011 - 2***2*9*,  2***2*94","9*1112**22,   991**6*22",Full & Part Load All Over India,Booking,"HCV, LCV",,,,
Bharti Roadlines,"Shop No. - 93 , Transport Center , New Rohtak Road , Near Punjabi Bagh , New Delhi.",Delhi,Delhi,Deepak Aggarwal,011 - 2*22***4,9*1*11*611 ,Tankar Supplier - All Over India,Supplier,HCV,bh*rtiro*dline*@gm*il.com,,"Tankers ,  10 Wheeler",Oil
Bihar Freight Carriers,"7th Mile Stone, Bajwa Compound, Giani Border , Ghaziabad",Delhi,Delhi,HK Singh,"0120 - 2612097,  261*697","9*12*02*97,  9*11*02*97,  9*10*02*97","Truck Available For - U.P. Bihar, Bengal, Assam, Jharkhand All Over India","Supplier, Booking",HCV,,,"Trailer,  10 Wheeler,  12 Wheeler",All Type Material
Bihar Jharkhand Transport Service,"Shop No.- 1/6 , Basement Kirti Nagar, Industrial Area , New Delhi - 15",Delhi,Delhi,Joginder Singh,011 - 4*0*27*4,"996*014719,  9*6*0*1*21 ,  99907*6677","Uttaranchal, U. P. Bihar , Chandigarh & All Over India",Booking,LCV,,,"Tempo,  Truck,  407,  709,  909,  1109,  1110",All Type Material
Bihar Kashmir Roadways,"204/1 , 1st floor, Sarai Pipal Thala , Azadpur , Delhi",Delhi,Delhi,Naveen Kumar,,"9211*27**6,  9717226*74",All Over Jammu & Kashmir .,Supplier,,,,"Tempo,  Truck,  6 Wheelers",Vegetable & Fruits
Bihar Roadlines,"Vimal Compound, U.P. Border, PO. Chikamberpur, Ghaziabad",Delhi,Delhi,Devendra Singh,,"9*1*976691,   9*1*279**7","Truck Avail. For Bihar, Bengal, Jharkhand",Supplier,HCV,,,10 Wheeler,All Type Material
Bikaner Assam Roadlines India Ltd.,"Shop No .- 31, Srinagar Colony, Near Shakti Nagar Extension ., Ashok Vihar , New Delhi.",Delhi,Delhi,,"011 - 2*6*1*0*,  2629*2*,  2622**4 ",,Daily Parcel Booking For All Over Assam,Booking,"HCV, LCV",,,"Truck,  10 Wheeler,  12 Wheeler,  6 Wheelers",All Type Material
Bilai Goods Carrier (Regd.),"10619, Jhandewalan Road (Nabi Karim) New Delhi-55",Delhi,Delhi,Ziauddin,011 - *2999479,9*111*1171,"Daily Parcel Service For: Delhi, J & K, Chennai, Bangalore, Jaipur & All Over India",Booking,HCV,,,"Truck,  10 Wheeler",All Type Material
Billing Roadways (India),"Shop No .- BG-531, Sanjay Gandhi Transport Nagar , Delhi-42",Delhi,Delhi,"Jogender Singh , Ravinder Singh",011 - *2**7026,"9*11**9176,  9*1***9176",Lorry Supplier - All Over Maharashtra,Supplier,HCV,,,"Truck,  Container,  10 Wheeler,  32 Ft. 6 Wheeler",All Type Material
Bindra Transport Co. ( Regd.),"Near Telephone Exchange , Charan Singh Compound , U.P. Border , Delhi",Delhi,Delhi,Narender Singh,0120 - 262902*,9*11*24614 ,Parcel Booking For U.P. & Uttranchal,Booking,LCV,,,"Tempo,  Truck,  407,  709,  909,  1109,  1110",All Type Material
Bipin Transport Pvt. Ltd.,"E 14, Room No. 102, Vishwakarma Colony, MB Road , New Delhi-44",Delhi,Delhi,S.S. Chaudhary,,"9*10046610,   9*10046611",All Over India,Booking,"HCV, LCV",delhi@bipintr*n*port.com,www.bipintransport.com,"Truck,  Trailer,  Container,  10 Wheeler,  12 Wheeler,  4 Wheeler,  6 Wheeler",All Type Material
Bisht Road Lines,"Godown Capital Hind Compound , Shani Dev, Mandir Chikamberpur U.P.,Border Ghaziaba.",Delhi,Delhi,R.S. Bisht,,"971***271* ,  9910**2*66,  9*7170460*",Full Truck Services - All Over India,Booking,HCV,,,"10 Wheeler,  12 Wheeler","Industrial Goods,  Machinery"
Bitoo Roadlines,"Shop No.- AW-107 , Basement , Sanjay Gandhi Transport Nagar Delhi - 42.",Delhi,Delhi,N.P. Singh,,"9*10626*6* ,  9*11626*6*","Daily Service - Delhi , Haryana , Rajasthan , U.P. , H.P. , M.P. , Uttaranchal , Patna",Supplier,LCV,,,"Truck,  6 Wheelers",Light Weight Material
Bless Carriers (P) Ltd.,"Shop No.- 602 , GDITL North Extension, Tower Pitampura , New Delhi",Delhi,Delhi,"Sanjeev Arora, Pandey ji","011 - 2*77*026,  2*77*662","9*101*2*41,  9*101*2*4*",All Over India,"Supplier, Booking","HCV, LCV",bl*cpl@gm*il.com,,"Truck,  10 Wheeler,  6 Wheelers",All Type Material
Boby Road Carriers,"Shop No.- A-268 , New Subzi Mandi , Azadpur , Delhi.",Delhi,Delhi,"Krishan Gopal Sood, Sachin Sood , Sonu","011 - 27670407,  276*2207","9*111****9 ,  9*111****9",All Over India,Supplier,HCV,,,12 Wheeler,
Bombay Agra Transport Carrier,"Shop No .- CW-247, Sanjay Gandhi Transport Nagar, Delhi-42",Delhi,Delhi,Jasvinder Singh (Sonu),,"92120**6*1 ,  9*116021*6 ,  *1*0*7141* ",Lorry Service - All Over India & Special Service - South,"Supplier, Booking",HCV,,,10 Wheeler,All Type Material
Bombay Agra Transport Corporation,"2/13, Rawalpindi Garden U.P. Border",Delhi,Delhi,Balbir Singh,,9*917*4**7 ,All Over India,Supplier,HCV,,,"Trailer,  10 Wheeler,  12 Wheeler",
Bombay Ahemdabad Roadlines,"Bypass Road , Anand Dairy , Near K.G. Khosla Company , Faridabad.",Delhi,Delhi,Jagdish Sharma,,"9**0***7*9,  921206*627",All Over South,Supplier,LCV,,,"Truck,  6 Wheelers 1109 ,  1110",All Type Material
Bombay Andhra Roadways Pvt. Ltd.,"94, Khanna Mrkt., St. Steefen Hospital, Tis Hazhari Delhi 54",Delhi,Delhi,Jasbir Sharma,"011 - 2*976*01,  6**7**22",9*11901*1*,All Over India,"Supplier, Booking","HCV, LCV",,,"Truck,  Trailer,  Container,  ODC Cargo,  10 Wheeler,  12 Wheeler,  4 Wheeler,  6 Wheeler",All Type Material
Bombay Banaras Transport Co. (Regd.),"6th Mile Stone , Delhi U.P.B. Near Telephone Exchange . Chikamberpur , Ghaziabad",Delhi,Delhi,Kishan,"0120 - 26277*0,  26279*6,  0120 - 2622141","9*1*146*99 ,  9*10926*26",Parcel Service - Delhi To Mumbai & Gujarat,Booking,HCV,bbtc_01@y*hoo.com,,10 Wheeler,All Type Material
Bombay Bangalore Roadways,"Shop No.- A-89 , Ramgarh , Opp. - G.T.K. Bus Depot , Delhi - 33",Delhi,Delhi,Raghuveer,"011 - 276*10*0,  276****0,  276**6*0","9*1*7190*0 ,  **76*6*9*0","Daily Service Full Truck & LCV For Gujarat, Maharashtra, Karnataka, All Over India",Supplier,LCV,bomb*yb*ng*lorero*dw*y*@gm*il.com,,"Tempo,  Truck,  Container,  407,  709,  909,  1109,  1110",All Type Material
Bombay Banglore Container Service,"Mata Chowk , Rangpuri , Mahipalpur , Delhi - 37",Delhi,Delhi,Mukesh Sharma,,"9**010*42* , 9*1292994*",Lorry Supplier - All Over India,Supplier,"HCV, LCV",,,"Container,  32 Ft.",All Type Material
Bombay Banglore Freight Carriers (R),"Shop No.- AG-79 , Sanjay Gandhi Transport Nagar , Delhi",Delhi,Delhi,Shyam Arora,"011 - 6***9**0,  42*6*111,  2**21***,  2**276**","9*100*09*9,  9*100*09*9",Full Load & Part Load - All Over India,Booking,"HCV, LCV",,,"Tempo,  Truck,  Trailer,  10 Wheeler,  12 Wheeler",All Type Material
Bombay Bareilly Carriers (R),"Shop No.- 871 , S.P. Mukherji Marg , Delhi-6",Delhi,Delhi,"Ajit Kumar , Pawan Kumar",011 - 27**214*,"9*10109*7* ,  9*1094****","Daily Parcel Booking For All Over U.P , Bareilly, Rampur, Bilaspur, Haldwani, Almora, Ranikhet, Pilibhit , Sitapur & All Over Uttrakhand",Booking,LCV,bbgc871@gm*il.com,,"Truck,  6 Wheelers",All Type Material
Bombay Calcutta Roadlines,"CW-540, Sanjay Gandhi Transport Nagar, Delhi",Delhi,Delhi,"Vinod Sethi, Vishal Sethi",011 - 27**1090,"9*91*6*02*,  9*99001499","Full Truck Service All Andhra Pradesh, Bangal",Supplier,"HCV, LCV",,,"Truck,  Trailer,  Container,  ODC Cargo,  10 Wheeler,  12 Wheeler,  407,  709,  909,  11 09,  14 Ft.,  17 Ft.,  19 Ft.,  22 Ft.,  24 Ft.",All Type Material
Bombay Delhi Carriers (R),"10815 , Jhandewalan Road , Nabi Karim , New Delhi . Branch Office - Shop No.- BG 298 , Sanjay Gandhi Transport Nagar , Delhi.",Delhi,Delhi,Naresh Anand,011 - 2**29276,9*1*741*00 ,Parcel Booking For All Over Mumbai,Booking,,,,"Truck,  10 Wheeler",All Type Material
Bombay Goods Freight Carriers,"Shop No.- 416 , Vardhman City Plaza- 2 , Near haz Mandir , Vardhman Gate , Asaf Ali Road, Delhi",Delhi,Delhi,C. M . Shukla Ji,"4**24271,  2*2**6**",9**04*1426 ,Full Load Booking For All India,"Supplier, Booking","HCV, LCV",,,,
Bombay Gujrat Road Carrier,"S - 7 , Community Centre , Mayapuri , Phase -I , New Delhi -64",Delhi,Delhi,S.L.Gupta,"011 - 2*1140**,  2*11764*",9*11*9*2*4 ,Full Load Service - All Over India,Booking,"HCV, LCV",,,"Tempo,  Truck,  Trailer,  Container,  10 Wheeler,  12 Wheeler",All Type Material
Bombay Gujrat Roadlines,"Shop No.- AW-371, Sanjay Gandhi Transport Nagar, Delhi-42",Delhi,Delhi,"Ashok Kumar, Om Prakash","011 - 27***496,  47**2196","9*1117*4*0,  9*11900619",Lorry Service - All Over Gujarat & Mumbai,Supplier,"HCV, LCV",,,"Truck,  10 Wheeler,  6 Wheelers","Rice ,  Parcel"
Bombay Gujarat Roadways,"6th Mile Stone , Balaji Complex , U.P.B. , Delhi",Delhi,Delhi,Dharamvir Kaushik ,0120 - 4107029,"9*11****0*,  *010****0* ,  *010062*99",Full Load - All Over India,Booking,"HCV, LCV",bgr.k*u*hik@gm*il.com,,"Tempo,  Truck,  Trailer,  Container,  10 Wheeler,  12 Wheeler",All Type Material
Bombay Kandla Transport Co.,"Shop No.- AW-126 , Sanjay Gandhi Transport Nagar , Delhi -42",Delhi,Delhi,Bharat Dua,"011 - 27*2***6,  27211246","9*11**7999 ,  9**01**011",Full Load - All Over India,Booking,HCV,,,"Truck,  10 Wheeler,  12 Wheeler,  6 Wheelers",All Type Material
Bombay Kandla Transport Corporation,"Shop No.- 58 , 1St Floor , Transport Centre , New Subzi Mandi , Azadpur, Delhi-11",Delhi,Delhi,Anand,011 - 276*21**,"9*990*077* ,  9*91*0*091",Full Load & Part Load - All Over India,"Supplier, Booking",HCV,bomb*yk*ndl*@gm*il.com,,"10 Wheeler,  12 Wheeler",All Type Material
Bombay Karnal Roadways (Regd.),"Shop No.- C-26 , New Subzi Mandi , Azadpur , Delhi.",Delhi,Delhi,"Ravinder Khurana , Vishal Khurana",,"9*126470*0 ,  9*91*29176",Parcel Booking - All Over India,Booking,LCV,,,"Truck,  6 Wheelers",Vegetable & Fruits
Bombay Kashmir Transport,"Shop No.- 6 , Baggha Bhavan , Near Shani Mandir , Delhi U.P Border , Post Office - Chikamberpur , Ghaziabad.",Delhi,Delhi,J. D . Sharma / Surendra Singh,"0120 - 262421*,  26221**","9*11440946,   9*114*7*4*,   9*1*697966 ",Full Truck Available For Jammu & Kashmir,Supplier,"HCV, LCV",,,"Truck,  10 Wheeler,  12 Wheeler,  6 Wheelers",All Type Material
Bombay Kolkata Transport Co.,"Shop No.- 47, 1st Floor , Transport Centre , Azadpur , Delhi",Delhi,Delhi,"Vijay Dora , Manoj Dora , Keshav",,"9*12917*71 ,  9*7*917*71 ,  9*106*4606",Lorry Service - Delhi To Kolkata To Delhi,Supplier,HCV,m*noj.dor*3@gm*il.com,,"10 Wheeler,  12 Wheeler",All Type Material
Bombay Patiala Transport Co:,"G T. Road , Near TCI , U.P. Border , Post Office - Chikamberpur , Ghaziabad.",Delhi,Delhi,Jamail Singh,0120 - 26266*9,9910*72*01 ,Lorry Supplier - All Over Punjab.,Supplier,,,,"Tempo,  Truck,  10 Wheeler,  6 Wheelers",
Bombay Poona Roadways (R),"BG-520 , Sanjay Gandhi Transport Nagar , Delhi.",Delhi,Delhi,Narender Bisht,"011 - 27**177*,  42*6017*","9*1121217*,   921221217*",Full Truck Available - All Over South .,Supplier,HCV,,,"10 Wheeler,  12 Wheeler",All Type Material
Bombay Pune Freight Carriers,"Shop No.- A-4/19 , Rawalpindi Garden , Opp. Telephone Exchange , U.P. Border Chikambarpur Ghaziabad.",Delhi,Delhi,Pappu Choudhary,0120 - 262*1*2,9*11*9*1*2,Lorry Supplier - Maharashtra & South India,Supplier,HCV,,,"Container,  10 Wheeler,  32 Ft.",All Type Material
Bombay Raipur Carriers,"Apsara Cinema Complex 2nd Floor U.P. Border, PO Chikmberpur, Ghaziabad",Delhi,Delhi,"Ramesh Somani, Dinesh","0120 - 2629192,  261222*",9*10**2*99,Spl. In Open Body Truck Sppl- All Over India,Supplier,"HCV, LCV",,,"Truck,  Trailer,  Container,  10 Wheeler,  12 Wheeler,  407,  709,  909,  11 09,  14 Ft.,  17 Ft.,  19 Ft.,  22 Ft.,  24 Ft.",All Type Material
Bombay Raipur Feight Carrier,"Shop No.- M -23 , 3rd Floor , Vishwakarma Colony , M.B. Road , Opp.- TKO , New Delhi.",Delhi,Delhi,R.S. Rawat,011 - 26*6*700,"999970*700,  9*1120*700","Lorry Service - Rajasthan Maharashtra ., Goa , Gujarat",Supplier,HCV,r*r*w*t185@gm*il.com,,"Trailer,  20 Ft. ,  40 Ft.",All Type Material
Bombay Raipur Logistics,"C-54, M.B. Road, Vishwakarma Colony , New Delhi",Delhi,Delhi,Bablu ( Amar chand ),,"9*9961*700,  9*1061*700,  901*66*700,  971116*700","Raj., Guj., Mah., Haryana, Delhi & All Over India",Supplier,HCV,,,"Trailer,  Container,  ODC Cargo,  20 Ft. ,  40 Ft. 50 80",ODC Consignment & Heavy Load
Bombay Rajasthan Transways,"326, Apsara Cinema Complex , U.P. Border , Ghaziabad.",Delhi,Delhi,Krishan,"0120 - 262*7*7,  261*7*7","99111*9797,  9999*9**9*","ODC Consignment - All Over India & Heavy Load - Mumbai , Pune & South India .",Supplier,HCV,,,Trailer,ODC Consignment & Heavy Load
Bombay Road Carriers,"CW-71 , Sanjay Gandhi Tpt. Nagar, Delhi-42",Delhi,Delhi,Kultaran Singh,011 - *20*09*1,9*91222099,"In Banglore, Hubli, Lucknow, Banaras, Maha.","Supplier, Booking",HCV,,,,
Bombay Roadlines,"Shop No.- 3448, Nicholson Road , Mori Gate , Delhi",Delhi,Delhi,"R.C. Juneja , Ravinder Juneja","011 - 2*9**649,  2*96*992","9*10996*66,  9*124*10**",All Over India,Supplier,"HCV, LCV",bomb*yro*dline*delhi@gm*il.com,,,All Type Material
Bombay Sri nagar Trpt. Service,"Shop No.- BG-499, Sanjay Gandhi Transport Nagar, Delhi.",Delhi,Delhi,Kabul Singh / Rajeev,"011 - 27**1127,  27**114*,  27**1**9",9*124*0**1 ,"Full Load - Kolkata , J & K , Srinagar , Punjab , Himachal",Booking,HCV,,,"10 Wheeler,  12 Wheeler","All Type Material,  Coal"
Bombay Surat Transport Co.,"Shop No.- CW-602 , Sanjay Gandhi Transport Nagar, Delhi-42",Delhi,Delhi,"Yashpal Singh , Sonu","011 - 47*61*1*,  42*60*1*","921*206749 ,  9*11106749","Lorry Service - Maharashtra , Gujarat",Supplier,,,,10 Wheeler,All Type Material
Brahmaputra Logistics,"54 , Transport Centre , Azadpur , Delhi.",Delhi,Delhi,Randeep Singh,"011 - 27676**0,  2767*4**","9*11162***,  9*11**61**",Full Load - All Over India,Booking,,,,,
Bright Carrier Of India,"Shop No.- F-22, Dside Complex , Nangloi , Delhi- 41",Delhi,Delhi,"Satish Sharma ,S.B. Sharma",011 - *471712,"9*112**449 ,  9*12***449",Full Truck Available For All Over India & Special Service - Mumbai,Booking,HCV,,,"Trailer,  Container,  10 Wheeler,  12 Wheeler,  32 Ft.","Machinery,  ODC Consignment & Heavy Load"
British Roadways Corporation,"Shop No.- 87, (Behind Shop No.- 40) Okhla Industrial Estate , Phase III . Delhi.",Delhi,Delhi,V. K. Mishra,011 - 26929477,"9*122**77*,  9*111*6477",Parcel & Full Load Booking Full All Over India,"Supplier, Booking",LCV,,,"6 Wheelers 1109 ,  1110",All Type Material
Bubna Transport Service (Ragd.),"Shop No.- 844 , S.P. Mukherjee Marg, ""Jaipuria Building"", Delhi-6",Delhi,Delhi,Gaurav,011 - 2*977416,9*102119** ,Parcel Booking - Delhi To Bhiwadi To Delhi,Booking,"HCV, LCV",,,"Tempo,  Truck,  Trailer,  10 Wheeler,  12 Wheeler",All Type Material
Bulandshahar Golden Transport Co .. (R),"4141, ""Dankara Building"" Naya Bazar, Delhi-6",Delhi,Delhi,Balram,"011 - 2*9**1*2,  2*962966",,Parcel Booking For All Over U.P.,Booking,LCV,,,"Tempo,  Truck,  407,  709,  909,  1109,  1110",All Type Material
Burma Tempo Transport Service,"Shop No .- C-6 , Wazirpur Industrial Area , Delhi-52.",Delhi,Delhi,Manmeet Singh,011 - 27*7*260,9*11262*9* ,Lorry Service - All Over India,Supplier,LCV,burm*tr*n*port@gm*il.com,,"Tempo,  Truck,  407,  709,  909,  1109,  1110",All Type Material
Buxar Delhi Roadways,"Shop No.- A-66 , Vrindavan Garden , Nitco Wali Gali , Delhi U.P. Border , Ghaziabad",Delhi,Delhi,Pratik Rai,,"99**7*2104,  9910*0**67 ",Full Load - All Over India,"Supplier, Booking",HCV,bdrro*d2@gm*il.com,,"10 Wheeler,  12 Wheeler",All Type Material
Calcutta Bombay Heavy Cargo Movers,"19- Ground Floor, Apsara Cinema ,Compo U.P. Border",Delhi,Delhi,Ashok Saini,"0111 - 26262** ,  2626*** ,  262****","9*10**6*** ,  96*0646*** ,  9*7****9**","Spl. Ser. : U.P., Jharkhad, Bihar, Bengal, Orrisa",Supplier,HCV,*.**ini1959@gm*il.com,,Trailer,Machinery
Calcutta Cargo Movers,"R. S Bajwa Compound, P.O. Chikamberpur, U.P. Border , Gz.",Delhi,Delhi,Rakesh Mishra,0111 - 261626*,"9**0002621 ,  9*10002621","Spl. Bihar, Bengal, Nepal, Assam, Calcutta",Supplier,HCV,,,"10 Wheeler,  12 Wheeler",All Type Material
Calcutta Carriers Of India,"29, Khanna Market, Delhi-54",Delhi,Delhi,N. K. Jangra,"011 - *29***6* ,  2*92**6*","9*1*7***7* ,  9**004**6*",Full Truck & Parcel Booking For Calcutta,Booking,,,,"Truck,  Trailer,  Container,  10 Wheeler,  12 Wheeler,  707, 909, 1109, 407 & 6 Wheeler",Parcel Service
Calcutta Express Transport Service,"Plot No:- S-2, Anupam Aoarment M-5, Vrindavan Garden U.P., Border Sahibabad Ghaziaba.",Delhi,Delhi,B. K maitry,,**00260721,All Over India,Supplier,"HCV, LCV",kile*pgh@y*hoo.in,,"Truck,  Trailer,  Container,  10 Wheeler,  12 Wheeler,  707,  909,  1109,  407 & 6 Wheeler",All Type Material
Calcutta Golden Carrier,"6th Mile Stone, Opp. Mata Mandir, Delhi U.P. Border, Ghaziaba.",Delhi,Delhi,Kuldeep santosh,,"9*9107297*,  96*0444*** ,  999977*0*1",Full Load All Over India,"Supplier, Booking",HCV,,,"Truck,  Trailer,  Container,  10 Wheeler,  12 Wheeler",All Type Material
Calcutta Jaunpur Roadlines,"S.N:- 12, Varindawan Garden Shaibabad Ghaziaba.",Delhi,Delhi,K. K. Mishra,0120 - 2611777,"94*66****7,  99**7*90*7","Tata Ranchi, Patna Ser : Kolkata, Jaunpur, Bihar, Jharkhand Assam & Orissa",Supplier,HCV,,,"Truck,  Trailer,  Container,  10 Wheeler,  12 Wheeler",All Type Material
Calcutta Patna Roadways,"A-34, Shyam Enc. Giani U.P..",Delhi,Delhi,Shivji Pandey,0120 - 2614*90,"9**0*1*291,  9*1064107*","Ser. Assam, Bihar, Jharkhand & Calcutta",Supplier,"HCV, LCV",,,"10 Wheeler,  12 Wheeler",Parcel Service
Calcutta Roadways Corporation / Calcutta Road Carrier,Shardhara U.P. Border P.O. Chikamberpur Ghaziaba.,Delhi,Delhi,Bhupender Singh,"26271*6,  262**66","9*71667*26,  9*106*7166",Full & Parcel Booking For Calcutta,Supplier,HCV,,,10 Wheeler,Parcel Service
Capital Cargo Carriers,"S.G. T.N. : 47551832, 47551833, Molia Khan Chowk, Sadar Thana Road, Delhi-55",Delhi,Delhi,Jaychand,"011 - 64*92744,  2**124*0",,All Over Jammu & Shrinagar,Booking,HCV,,,"10 Wheeler,  6 Wheeler",All Type Material
Ghai Roadlines,"6th Mile Stone, U.P. Border P.O. Chikamberpur Ghaziaba.",Delhi,Delhi,Vinod Bhai,"0120 - 2626*97,  *290167","9*91446422,  99***66422","Spl Service Bangalore, Chennai, Coimbature Pondichery",Supplier,HCV,gh*iro*dline@gm*il.com,,"Container,  10 Wheeler,  6 Wheeler",Parcel Service
Capital Transport Co. (India),"CG-210, S.G.T.N. New Delhi-42",Delhi,Delhi,Rameshwar,"011 - 27**1*44,  27**1*4*,  6*44297*",9**09126*9,"Full Truck Canter Aval. For Delhi, U.P., Hr. Pb. Raj & South","Supplier, Booking","HCV, LCV",info@c*pit*ltr*n*port.com,www.capitaltransport.com,"Truck,  Trailer,  10 Wheeler,  12 Wheeler,  707,  909,  1109,  407 & 6 Wheeler",All Type Material
Capital Transport Corpn. of India,"50, Khanna Market, Tis Hazari, Delhi",Delhi,Delhi,B. K. Malhotra,011 - 2*974*22,9*11647**2,Full Parcel Booking For Calcutta & Mumbai,Booking,HCV,,,10 Wheeler,Parcel Service
Capital Transport Organisation,"BG-106, Sanjay Gandhi Transport Nagar, Delhi",Delhi,Delhi,S. N. Aggarwal,011-47*61466,9*1*1*4466,Full Load Booking All Over India,Booking,"HCV, LCV",,,"Truck,  Trailer,  Container,  10 Wheeler,  12 Wheeler,  707,  909,  1109,  407 & 6 Wheeler",All Type Material
Captain Temp Goods Carrier,"116, Near Veer Public School, Kapashera, New Delhi",Delhi,Delhi,Rajbir Yadav,011 - 416*4**0,"9*1*760**7,  9*1**12***","Tata Canter Available For Service: Delhi, U.P., Haryana, Rajasthan & Punjab",Supplier,LCV,,,"407,  Canter,  1109,  LPT",All Type Material
Car Carrier Of India,"Plot No. 1286, 1 st Floor, Karan Yadav Kapashera, New Delhl-37",Delhi,Delhi,S. V. Parmar,,"9*10102**0 ,  9911102**0 ,  9*1*192**0","Car, Scooter, Motorcycle , Maruti , Goods For All Over India",Supplier,HCV,,,Trailer,"Car,  Scooter,  Motorcycle"
Caravan Freight Carriers Pvt. Ltd.,BG 114/AS.G.T.N. Delhi 42,Delhi,Delhi,Narender Singh,"011 - 27***9*1,  27***9*2",9*10**4992,"Full Truck Load For All Over India, Spl. Mumbai, Carrying ODC Project & Machinery",Booking,"HCV, LCV",delhi@c*r*v*nfreight.com,,"Truck,  Trailer,  10 Wheeler,  12 Wheeler,  707,  909,  1109,  407 & 6 Wheeler","All Type Material,  Machinery"
Caravan Roadways Ltd.,"AG-28, Sanjay Gandhi Transport Nagar, .Delhi-42",Delhi,Delhi,"Rajeev Gupta , Narendra Sharma","011 - 27**1277,  4707777(100 Line) 27**1477,  27**2177",9*1*****77,"Parcel Service Mumbai To Delhi, Har., Punjab, Rajasthan., U.P. & H.P.",Booking,"HCV, LCV",delhi@c*r*v*nro*dw*y*.com,www.carvanroadways.com,"Trailer,  Container,  10 Wheeler,  12 Wheeler,  707,  909,  1109,  407,  Canter",All Type Material
Caravel Logistics Pvt. Ltd.,"502, Copia Corprate Suites 9, Jasola Dist New Delhi",Delhi,Delhi,Subodh Kumar,"011 - 4*291000,  4*291001 / 002 Upto 22",99**296***,All Over India & International Service,Supplier,HCV,delhi.dom@c*r*vellogi*tic*.com,www.caravel.in,"Truck,  Container,  10 Wheeler,  12 Wheeler",Cement
Care Logistics ,"Gali No.2 , Near Rly Line , Delhi-U.P. Border , Ghaziaba.",Delhi,Delhi,R. K. Shukla,,"99710*1626,  9*116*977* ,  7*27**126*",All Over India,Booking,HCV,,,6 Wheeler,All Type Material
Carex Logistics,"CW-540 In Basement ,Sanjay Gandhi Transport Nagar Sameypur Badli Delhi -42",Delhi,Delhi,Sumit Bharatbushan,,"9*10469099,  991027999*,  9*109*02*9",Full & Part Load Daily Services: All Over India,"Supplier, Booking",LCV,c*relogi*tic@gm*il.com,,"407,  Canter,  1109,  707",All Type Material
Cargo Carrier India Regd.,H150 A Dilshad Garden Delhi,Delhi,Delhi,Dinesh Ganesh bharjdwa,011 - 221*27**,"9**0*46*21-22,  9**0*46*2*,  9**0*46*22","Chandhigarh, Culcutta , Mumbai, Punjab",Booking,HCV,,,"Container,  32 Ft,  Single & Multi Axle",Full Truck Load
Cargo Carriers India Ltd.,"CW-25C, S.G.T.N., Delhi-42",Delhi,Delhi,I. C. Mishra,"011 - *24**221,  2**16164","9*10*01116,  92127*0016","Iso Container, Truck For All Mumbai & Mah. Guj",Supplier,HCV,ccil@*ify.com,,"Trailer,  Container,  10 Wheeler,  12 Wheeler",All Type Material
Cargo Logistics,"Jindal House1/9B, Asaf Ali Road, New Delhi",Delhi,Delhi,Anil,"011 -2*2**022,  2*2***97,  2*2*47*1","9*101*1201 ,  9*101*120*",All Over India,Booking,HCV,elpd@c*rgomotor.com,www.cargomotor.com,Trailer,Car Carrier
Carizone Relocating Service,"Main Road Ghewara Village Opp. Govt. School, Delhi-81",Delhi,Delhi,A.K. Dahiya,"011 - 2*9*1*26,  *2*04*26","9*12024*09,  9*400**400,  9*400*4400","Spl. In 17, 20, 24, 32, Feet Container & Open Body Truck Vehicle Avilable For All India",Supplier,"HCV, LCV",c*rizone@y*hoo.in,,"Truck,  Trailer,  Container,  10 Wheeler,  12 Wheeler,  707,  909,  1109,  407 & 6 Wheeler",All Type Material
L. D. Road Carriers,"KiIwat Pindi Garder, U.P. Border, P.O. Chikamberpur, Delhi",Delhi,Delhi,Sanjay Sharma,011 - 2610707,"9**09112*2,  9*11610707",Full Load All Over India,"Supplier, Booking","HCV, LCV",ldro*dc*rrier**j*y@gm*il.com,,"6 Wheeler, 1109,  407",All Type Material
Sky India worldwide express,"No. 323L, 1st Floor, 7th Street, Mahipalpur, Delhi - 110037 Landmark: Near Agarwal Sweets Shop",Delhi,Delhi,Sanjay Bharadwaj,011 - *0621717,"9*1*046162 ,  96*49**0*1",All Over India,Booking,HCV,**nj*y*kynet@y*hoo.co.in,www.skynetindia.com,"Truck,  Trailer,  Container,  10 Wheeler",All Type Material
CCI Logistics LTD.,"Bus Bhavan, Near Indian Bank, Delhi",Delhi,Delhi,"Bijender, Satish Sharma, Madan Lal","011 - *2*07176 ,  2**42419","9*12097072 ,  9**010*42*",Spl : South & All Over India,Supplier,HCV,,,"Container,  Single & Multy Axle",Full Truck Load
Central Transport Corporation Of India,"D - 2 , 2nd Floor, D Block Market , Vivek Vihar , Delhi - 95",Delhi,Delhi,J. P.Gupta Saubhav,,"9*1**42*29 ,  9*1226***0",Full Load & Trailor Booking For: All Over Lndia,"Supplier, Booking","HCV, LCV",delhi@ctci.co.in,www.ctci.co.in,"Truck,  Trailer,  10 Wheeler,  12 Wheeler,  6 Wheeler,  1110,  1109",Industrial Goods
Central Transport Company,"7196, Near Hanuman Mandir, Main Road Qutab Road, New delhi",Delhi,Delhi,"Shamim, Ansari","011 - 27**1079,  2**2*019,  2*670140",9*127*9111,Daily Booking For Mumbai,Supplier,"HCV, LCV",,,"Tempo,  Container,  10 Wheeler",All Type Material
Central Transport Organisation (R) / Central Logistics,"242, Sanjay Gandhi Transport Nagar, New Delhi",Delhi,Delhi,Satish Bajaj,"011 - 27****** ,  2*6***1*",9*126*27*6,Full Load Booking For All Over India,"Supplier, Booking",HCV,,,"10 Wheeler,  6 Wheeler",Household Goods & ODC Consighments
Neet Express Logistics,"Plot no. 547, Rohtak Market, Main Rohtak Road ,New Delhi - 41",Delhi,Delhi,Sanjay Vashishit,,"96*0121*1* ,  9*11121*1*",All Over India,Booking,LCV,neetexpre**logi*tic*@gm*il.com,,"Container,  707,  909,  1109,  407,  Canter",ODC Consigment
Century Cargo Movers,"Plot no 525, Chiku House, Near NCD Road, Shalimar Goan, New Delhi",Delhi,Delhi,Daulatram Geniwal,,"9*10909007,  9*11109007",All Over India ( Spl: Pune & Mumbai),Supplier,HCV,d*ul*tr*m.geniw*l7@gm*il.com,,6 Wheeler,All Type Material
Century Carriers Of India,"74/1 Gulihan Park ,Behind Sonia Hospital, Rohtak Road, Nangloi, Delhi - 41",Delhi,Delhi,Raj Kumar Sharma,"011 - *2409022 ,  2*476**4,  *29927*0","9*1*9927*0,  9*119927*0","Maha.& A.P., South",Booking,HCV,ccirktr*n*port@gm*il.com,,"Container,  10 Wheeler",Parcel Service
Century Express Cargo Movers,"731/2, Firani Road, Near Vrandavan Vatika, Mundka, New Delhi - 41",Delhi,Delhi,Dharam vir,,"9*120*1**0 ,  901**914*0","Ser:- Delhi ,Ludhiana & Full Load In All Over India",Supplier,LCV,,,"407,  Canter,  1109,  707",Cartons & Electronics Goods
Century Roadlines,"416/5A, Kar Kar Dooma, U.P..",Delhi,Delhi,Dayakishan Sharma,"0120 - 2620796,  22*7*72*","9*1242*041,  9*6*104216","Full Load Booking For U.P., Uttranchal","Supplier, Booking",HCV,,,"10 Wheeler,  6 Wheeler","All Type Material,  Parcel Service"
"CFC Carriers Pvt, Ltd.","308, Rishab Corporate Tower, Community Centre, Delhi 92 ka",Delhi,Delhi,"A . N. Jha , Sekhar","011 - 22*74494 ,  22*7449* ,  2624106 ,  4116***",9*1011*606,All Over India,Supplier,HCV,info@cfcc*rrier*.com,www.cfccarriers.com,"Trailer,  Container,  10 Wheeler",All Type Material
Chacha Bhaji Transport Service & Motors,"1/6, Near Old Petrol Pump, Kirti Nagar, New Delhi",Delhi,Delhi,"Dilip Singh Chhabra , Mahinder Singh","011 - 2*4***71 ,  2*1**6*4","9*6*1*412* ,  9*71172*4*",Only Local Service,Supplier,LCV,,,"Tempo,  Canter,  407,  1109,  707",All Type Material
Chaddha Golden Freight Carriers,"4119, Naya Bazar, Delhi-6 AG412, Sanjay Gandhi Transport Naga.",Delhi,Delhi,"J.P. Chadha, N.S. Chadha","011 - 27***791 ,  27***4** ,  27****** ,  6*4**191","9*1260***0,  9212419**4","Full Load & Parcel Service For Punjab, H.P.",Booking,"HCV, LCV",,,"10 Wheeler,  12 Wheeler,  6 Wheeler & 1109,  707",Parcel Service
Chaddha Motor Transport Co. Pvt. Ltd.,"1724, Naya Bazar, Delhi-6",Delhi,Delhi,,"011 - *202714* / 149 ,  *2027147",,"Parcel Booking For Punjab, All, H.R.",Booking,"HCV, LCV",,,"10 Wheeler,  6 Wheeler,  1110,  1109,  407",Parcel Service
Chadha Travels '(India) Regd.,"(H.0.)-150, Transport Centre, New Rohtak, New Delhi B.O. 4111, Naya Bazar",Delhi,Delhi,"N.S. Chadha, P.S. Chadha","011 - *2*1496* ,  2**12*11 ,  *2******,  2*9**0*6",,"Daily Parcel Service & Part Load Booking For All Hal, Panipat, Piplej, Ambala, Karnal & Punjab",Booking,LCV,,,"Canter,  709,  1109,  6",Parcel Service
Chamba Manali Goods Transport Co. (Regd.),"4103-A,Booking Office, Naya Bazar, Delhi",Delhi,Delhi,"Satish , Sudhir","011 - 2*91696* ,  2*947*41 ,  2*944701","9*1227**16,  921240***2",Spl : H.P.,Booking,HCV,,,"10 Wheeler,  6 Wheeler",Parcel Service
Chamba Manari Transport Co. (Regd.),"B.O - 4103, Naya Bazar ,Delhi -6",Delhi,Delhi,"Sudhir , Devender",011 - 2*91696*,"921240***2 ,  9212**9794",Ser:- All Himachal,Booking,HCV,,,"10 Wheeler,  6 Wheeler",Parcel Service
Chamba Simla Roadlines Pvt. Ltd.,"CW/57, Sanjay Gandhi Transport Nagar, Delhi - 42",Delhi,Delhi,Mukesh Sharma,011 - 26146** *2970070,"9**0*711** ,  9910946712 ,  9*1190***0",Daily Parcel Service For All Himachal,"Supplier, Booking","HCV, LCV",,,"Container,  10 Wheeler,  12 Wheeler,  707,  909,  1109,  407 & 6 Wheeler",Parcel Service
Chandel Golden Transport Co.,"A-1111. Rawal Pindi Garden, Opp. Telephone Exchange, O.B.C. Bank Wali Gali, U.P' Border, P.O. Chikamberpur",Delhi,Delhi,Kuldeep Singh,011 - 26221*1,"9*1064***9 ,  9*1064***9",Daily Ser. : All Gujrat,Supplier,HCV,,,"10 Wheeler,  12 Wheeler",All Type Material
Chandela Tempo Service,"168/B, Village Tekhand Near, Campa Coal Factory, Okhla Ind. Area, Phase-1, New Delhi",Delhi,Delhi,Dharmpal,,"9*1244*69* ,  9***72*766",All Over India,"Supplier, Booking","HCV, LCV",,,"10 Wheeler,  707,  909,  1109,  407 & 6 Wheeler ,  Pickups",Parcel Service
Chandhoak Roadways,"BS-87 ,Sanjay Gandhi Transport Nagar, Delhi - 42",Delhi,Delhi,,011 - 27**14*0,9**0210*6*,Ser:- Delhi To Mumbai,Supplier,HCV,,,"Container,  10 Wheeler",Household & Export
Chandigarh Baddi Roadlines,"BG-591, 3rd Floor, Sanjay Gandhi Transport Nagar, Delhi - 42",Delhi,Delhi,"Ved Prakash , Ramesh Kaushal",,"9*1000**6* ,  *01002140* ,  9*71976776,  9*1167*77*,  9*1000**6*","Ser :- Ambala, Zirakpur , Roper, Una, Kangra, Hamirpur, Chd Baddi, All Himachal & Punjab",Supplier,,,,"10 Wheeler,  12 Wheeler,  6 Wheeler,  407,  1109",All Type Material
Chandigarh Golden TPT,"J.J. Camp, Near Chawla Hotel, Okhla Industrial Area, Phase 2, New Delhi",Delhi,Delhi,Sohan Singh pawan,"011 - 26**6*6*,  26**696*,  40*4676*",9*1*7*146*,H.P. & Punjab,Supplier,HCV,,,"10 Wheeler,  12 Wheeler,  6 Wheeler",All Type Material
Chandigarh Himachal Transport Co.,"AW-12, Sanjay Gandhi Transport Nagar, Delhi-42",Delhi,Delhi,Daulat Ram,"011 - 27****9*,  27**219*,  6***927*,  42*6*19*",9*1*66097*,"Full Truck Available Forchandigarh, H.P., Punjab, Raj. Spl. Chd, Ambala, Baddi, Pb., H.P.",Supplier,HCV,,,"10 Wheeler,  LPT",Food
Chandigarh Punjab Himachal Tempo Transport,"Shop no 1, Shiv , Opp NSIT, Near Shani Mandir , Dwarka, New Delhi - 78",Delhi,Delhi,Rajindar saigal,011 - 646**616,"9*122*4**2,  921274***4","Punjab, Haryana, Rajasthan, Utt, U.P. Guj., Maha",Booking,LCV,,,"407,  1109,  1109,  Canter","All Type Material,  Full Truck Load(Thok)"
Chandigarh Punjab Himachal Tempo Transport Co.,"A-1, Hari Vihar Old Palam Road, Kakrola , Delhi",Delhi,Delhi,Daulat Ram & Rajendra,,"9212697**2 ,  9*122*4**2","Tata, For Punjab, J & K, Haryana & Delhi",Supplier,LCV,,,"Canter , 1109 ,  407,  LPT ,  709",All Type Material
Chandra TPT Corp.,"C-10/2, Lawrence Road, Indl. Area",Delhi,Delhi,Uttarn,"011 - 2710***1 ,  27194016",9**09446**,Full Truck & Trailer Load For All Over India,"Supplier, Booking",HCV,,,"Truck,  Trailer,  10 Wheeler,  12 Wheeler,  707,  909,  1109,  407 & 6 Wheeler",All Type Material
Channa Transport Packer & Movers,"652, Chara Mandi, Near Malik Dharam Kanta, Zakhira, Delhi",Delhi,Delhi,Raju,,"9*10670*1* ,  9**004**17,  921264666*",Ser:- Full & Part Load For All Over India,"Supplier, Booking","HCV, LCV",,,"Trailer,  10 Wheeler,  12 Wheeler",Parcel Service & Household
Chardi Kala Dasmesh Road Carrier,"B-20/B, Ground Floor, Adrash Nagar, Delhi",Delhi,Delhi,B.S. Saini,,"9*10072296 ,  9*10092296",Ser: Surat,Supplier,HCV,b*l*ingh@gm*il.com,,"10 Wheeler,  6 Wheeler",All Type Material
Chattisgarh Andhra Goods Carrierrs,"AW-120, S.G.T.Nagar, Delhi",Delhi,Delhi,Rash Pal Singh,"011 - 27**061* ,  47**1*6*","9*6*0462** ,  9*10421*1*","Spl:- Nagpur, Gondia, Chanderpur",Supplier,HCV,,,"10 Wheeler,  6 Wheeler",All Type Material
Chattisgarh Road Carrier,"CW 555, Sanjay Gandhi Transport Nagar, Delhi",Delhi,Delhi,J.S. Chauhan,011 - 27**2*1*,"742*16**0* ,  9*11972*1*",All Over India,"Supplier, Booking",HCV,,,"10 Wheeler,  12 Wheeler","All Type Material,  Parcel Service"
Chaudhary Freight Carriers,"Shop No. 18, Aggarwal Market, U.P Border",Delhi,Delhi,"Ranbir, Gourav","0120 - 410**9* ,  262**9*","9*112*2*7* ,  9*112*2*7*",Full Truck Available J&K,"Supplier, Booking",HCV,,,"Truck,  Trailer,  10 Wheeler,  12 Wheeler",All Type Material
Chaudhary Golden Transport Service.,"B-8/38, Khazan Basti , Gurdwara Road, Mayapuri, New Delhi - 64",Delhi,Delhi,Ajit,,9*102*942*,All Over India,"Supplier, Booking","HCV, LCV",,,"Truck,  Trailer,  ODC Cargo,  10 Wheeler,  12 Wheeler",All Type Material
Chaudhary Transport Service (R),"GF. 26, ""Guru Ram Dass Bhawan"", Ranjeet Nagar, Delhi",Delhi,Delhi,"Bhoop Singh, Subhash","011 - 2*702101 ,  2*702201 ,  2*70249*","9*6*7*76*0 ,  99714127*0","All Rajasthan, Gujrat, U.P. All Over India","Supplier, Booking",LCV,n*re*hnfc@gm*il.com,,"707,  909,  1109,  407,  Canter",All Type Material
Chaudhary Transport Co. Pvt. Ltd.,"10234, Library Road, Azad Market, Delhi-6",Delhi,Delhi,Tilak Raj Ranjan Chaudhari,011 - 2*67044* ,9*11291291,Full Load Booking For All Over India,Booking,"HCV, LCV",,,"Trailer,  ODC Cargo,  10 Wheeler,  12 Wheeler","All Type Material,  Full Truck Load(Thok)"
Chaudhary Transport Service,"Shop No -3 & 17 1st Floor, G.T. Road, Siraspur, Delhi - 42",Delhi,Delhi,Roshan Chaudhary,,"9*110*9229 ,  9*12004*40","Delhi U.P., Haryana .Punjab ,Rajathan ,& Uttranchal",Supplier,HCV,,,"10 Wheeler,  1109,  6 Wheeler",Food
Chaugale Roadways,"Vimal Compound, 6th Mile Stone, U.P. Border, P.O. Chikamberpur, Ghaziaba.",Delhi,Delhi,B.G Patil,0120 - 262*97*,9*9107*9**,"Full & Part Load For Banglore, Kar., Chennai, Hyd. &All South Spl. In Tube Light & Bulb Supp. Spl. Servce South & West",Booking,HCV,,,"Truck,  10 Wheeler,  12 Wheeler",Full Truck Load
Chauhan Tempo Transport Co. (R),"Near Jai Bharat, Dharam Kanta, Bakoli , Delhi",Delhi,Delhi,"Vijay Kumar , Joginder Singh",011 - 2770*77*,"9*1*64*2*1 ,  9*1*6207*2","Tata, Canter For Pb., Chd., H.P., Maha., South","Supplier, Booking",LCV,k*ch*uh*ntpt@gm*il.com,,"707,  909,  1109,  407,  Canter, 1110",All Type Material
Chauhan Transport Corpn.,"Opp. Vijay Laxmi, Transport Co., 6th Mile Stone, U.P.B",Delhi,Delhi,Sunil Chauhan,,"9*107710*0 ,  9*1*4**401",Full Load Booking For Allover India,Booking,HCV,,,10 Wheeler,"All Type Material,  Commercial Googs"
Chauhan Transport Service (R),"Near R Line Okhla, Delhi 19",Delhi,Delhi,"I.S. Chauhan, Ved Parkash",,"9*10*6241* , 9*124*61**","Tata Canter For Delhi, U.P., Uttranchal, Haryana, Rajasthan",Supplier,,,,"407,  17 Ft ,  Canter",Industrial Goods
Chawala Cargo Movers,"A-53, Okhla, Phase 2, New Delhi",Delhi,Delhi,Ajit Chawla,,"9*122*9**4 ,  9*10072***",All Over India,"Supplier, Booking",LCV,,,"Container,  407,  Canter & 24 Ft",All Type Material
Chawla Freight Carriers,"Main Rohtak Road, Swaran Park, Delhi - 41",Delhi,Delhi,"Harsh Chawla , S.L. Chawla",011 - 2**42919,"9*12279*26,  9*11179*26","Truck, Tempo For All Over India Special: Sangmar, Barnala, Batinda, Malot, Muktser & All Punjab",Booking,,ch*wl*30@y*hoo.com,,"Truck,  10 Wheeler,  12 Wheeler,  707,  909,  1109,  407 & 6 Wheeler",All Type Material
Chawla Goods Carriers,"302/9, ICD. , Tkd",Delhi,Delhi,Deepak Chawla,,"9*1026179* ,  9*1012*0*1",All Over India,"Supplier, Booking",HCV,cgcdelhi@y*hoo.co.in,,Trailer,ODC Consigment
Chawla Highway Carriers,"Opp. Westend Cinema, Sadar Bazar, Delhi-6",Delhi,Delhi,Ramesh Chawla,"011 - 2**24*2*,  2**470*4,  2*67*196,  02**2*010",,"Daily Parcel Service For: Delhi, Mumbai, Thane, Bhiwandi, Ulhasnagar & Bhayender",Booking,HCV,,,"Truck,  10 Wheeler,  12 Wheeler,  6 Wheeler",Parcel Service
Chawla Transport Service,"S 17, Community center, Mayapuri, Phase 1, New Delhi",Delhi,Delhi,Indrajit Chawla,"011 - 2*11*96*,  400**619","9*716*41*4 ,  92666*41*4","Tata 407, Canter LPT For Chandigarh, Jaipur, U.P., & J&K Special Service: Pb.,Raj., Hp.",Supplier,LCV,,,"407,  Canter","All Type Material,  Marble"
Chayan Cargo Movers,"CW-579, Sanjay Gandhi Transport Nagar, Delhi - 42",Delhi,Delhi,Kapil Anand ( Sonu ),"011 - 27**2111 ,  27**2211","9*1111617* ,  9*1010617*","For U.P., Hr., Pb., Chd., H.P., Jh., J&K Spl. Punjab & H.P.",Supplier,LCV,,,"Dcm ,  Canter ,  407","All Type Material,  Household Goods"
Cheema Roadlines,"A-89, Opp. G.T.K. Road, Ramgarh, Jahangirpuri, Delhi",Delhi,Delhi,"Sukdev Singh, Amrik Singh",,"9711*94*0*,  9211222**0,  9211222624","Daily Service: All Punjab, Chandigarh","Supplier, Booking","HCV, LCV",,,"Truck,  Container,  10 Wheeler",All Type Material
Chela Ram Transport Company,Nr. Apsara Cinema Delhi U.P. Border P.O. Chikamberpur Distt. Ghaziabad (U.P.),Delhi,Delhi,Makhija,,"9*1124*0*0,  9*7122672*",Fast Moving For Assam,Supplier,HCV,,,"Container,  10 Wheeler,  12 Wheeler",All Type Material
chetak Logistic Ltd.,"Old Gurgaon Road, Kapashera New Delhi-37",Delhi,Delhi,Ramesh,"011 - 46677777,  416*400,  4129411,  2**1**11,  1*00117979 (Toll Free)",,All Over India,"Supplier, Booking","HCV, LCV",chet*k@chewt*km*il.com,www.chetak.co.in,"Truck,  Trailer,  10 Wheeler,  12 Wheeler,  707,  909,  1109,  407 & 6 Wheeler",All Type Material
Chetan Cargo Movers,"121 Feet Road, Dharam Colony, Opp Spanish Court, Palam Bihar, Gurgaon",Delhi,Delhi,Mukesh Chahal,0124 - 6462742,"9*12262742,  9*11762742",All Over India,Supplier,HCV,chet*nc*rgomover*ggn@gm*il.com,www.chetancargomovers.com,"Container,  20 Ft ,  24 Ft,  32 Ft",All Type Material
Chetan Road Lines India Pvt. Ltd.,"6926 / 164 A / 1, Jaipur Mill Opp. Amba Cinema, Subzi Mandi, Delhi",Delhi,Delhi,Yodpal,"011 - 2***9*9* ,  *2***71",9*11*12764,Full & Part Load All Over India,Booking,HCV,,,"Container,  10 Wheeler",All Type Material
Chetan Transport Co,"C-48/3,2 nd Floor, Industrial Area, Lawerence Road,Delhi -110035",Delhi,Delhi,Y.S Tiwari,"011 - 27*94019,  274071**",9*10*41**7,"Service; Banaras, Lucknow, Gorkkhpur, Kanpur, Spl. Mumbai & Delhi (Fleet Owner)","Supplier, Booking",HCV,,,"Container,  25","Industrial Goods,  ODC Consigment"
Chhabra Raodlines (R) Agent,"212, Kamla Market, New Delhi-110002",Delhi,Delhi,Vinod,"011 - 2*2*9*02,  2*2*61*9",9*1114226*,"Goods Forwarding & Commission Agents For Mah., M.P.,U.P. & South",Booking,LCV,,,"LPT,  Canter,  407,  709",Parcel Service & Household
Chhaya Transport Service,"Shop No.4, Zafar Mkt., Tronica City, Near Idgha loni Baghpat Road, Loni, Ghaziaba.",Delhi,Delhi,Ashukri,0120 - 2696*27,"9*1*729606 ,  9*1*7*4*06","Spl. U.P., U.K., Hr., H.P., Guj, South.",Booking,"HCV, LCV",,,"Truck,  10 Wheeler,  707,  1109,  407 & 6 Wheeler",All Type Material
Chinar Roadlines (R) Delhi,"4013, Naya Bazar, Delhi-6",Delhi,Delhi,"Gurbaksh Singh , Manish","011 - 2*92**40,  2*920*04,  2*979*66",9*114*096*,"Daily Parcel Service For J&K, Leh, Ladakh",Booking,HCV,,,"10 Wheeler,  6 Wheeler",Parcel Service
Chobici Golden Carrier,Opp. Mata Mandir 6th Mile Stone U.P. Border P.O. Chikamberpur Ghaziaba.,Delhi,Delhi,Satyawan,0120 - 2622**9,"9**0*796*9 ,  94***9**0**","Full Truck Available For Sonepat, Kaithal, Jagadhari","Supplier, Booking",HCV,,,"10 Wheeler,  6 Wheeler",All Type Material
Chopra Roadlines,"2609-10, Naya Bazar, Delhi-110006",Delhi,Delhi,Vinod Chopra,"011 - 2*9***4*,  2*941999","9*6*1**999,  *7*01**999","Daily Parcel Service For: Delhi-Amritsar-Delhi & Amritsar, Jalandhar, Phagwara, Goraya, Ludhiana, Sahenewal Spl. Batala, Gurdaspur",Booking,HCV,,,"Truck,  10 Wheeler,  6 Wheeler",Parcel Service
Chopra Transport Service,B-170 Mansarover Garden New Delhi,Delhi,Delhi,Surinder Chopra,"2*469**1,  2*1*2*67",9*1046*626,"Available For Uttranchal, Chandigarh",Supplier,LCV,,,"Canter,  LPT,  407",All Type Material
Choudhary Cargo,"B-15-16, Vishkarma Colony, M.B. Road, TKO",Delhi,Delhi,"Prahalad Choudhary, Shankar Lal Choudhary",011 - 26*6***0,"9910196*00,  9*10*06*00,  9*10196*00","Raj., Guj., Delhi",Supplier,HCV,,,Trailer,"Machinery,  Iron"
Choudhary Cargo Carriers,"B- 34, Vishwakarma Colony New Delhi",Delhi,Delhi,Surender Choudhary,,"9*110**1**,  9*110**12*",Full Load Booking All Over India,Booking,LCV,c*rgochoudh*ry@gm*il.com,,"10 Wheeler,  Canter,  LPT,  1109,  407 & 6 Wheeler",Household
Choudhary Cargo Movers Pvt. Ltd ..,"BS-99, Sanjay Gandhi Transport Nagar, Delhi",Delhi,Delhi,Sunil Choudhary,011-27**6*6*,"9*1111761*,  971111761*","Spl. 20Ft. 40Ft. Container For Mumbai, Pune, Hyd. Chennai, Banglore, Coachin, Coimbatur, Goa",Supplier,HCV,choudh*ry93c*rgomover*@gm*il.com,,"24 Ft ,  28 Ft ,  40 Ft",All Type Material
Choudhary Golden Transport Service (Regd .) / DPR Cargo,"B-4, Main G T. Kamal Road ,Ambey Garden ,Libas Pur Delhi -42",Delhi,Delhi,Kewal Choudhary,011 -27***7*4,9*1000*1** / 4 / * / 6 / 7,"Ser:- Ludhiana, Jalandhar ,Moga, Solan, Shimla, Taliwan, Guna, Nagal, All Zirakhpur &H.P.",Booking,HCV,dprc*rgo52@gm*il.com,www.dprcargoexpress.com,"Tempo,  Truck,  Trailer,  10 Wheeler,  12 Wheeler,  707,  909,  1109,  407 & 6 Wheeler",All Type Material
Choudhary Logistics,"Shop No. 13, Jain Mkt., 4A, Ambey Garden, Near Jhande Walan Petrol Pump, G.T. Karnal Road, Libaspur, Delhi",Delhi,Delhi,D. P. Chaudhary,011 - 27**06*6,"921*61*2*6,  921*71*2*6 ,  999041*2*6","Delhi , Gurgaon, Ballabhgarh, Sonipat, Panipat, Karnal, Salsa, Jinjor, Chandigarh , Amabala, Panchkula","Supplier, Booking",HCV,,,"10 Wheeler,  12 Wheeler,  6 Wheeler",All Type Material
Choudhary Motor Transport Co.,"Shed No. 13, DSIDS Complex, Nr. S.B.1. Nangloi, Delhi",Delhi,Delhi,Rajveer Chaudhary,011 - 2*47**71,"9**00*6940,  9*100*6940,  97110*1210","DCM, Toyata, Canter, Nissan Available For Daily Service All Over India","Supplier, Booking",LCV,,,"1109,  709,  6 Wheeler",Parcel Service
Choudhary Tempo Service,"D-2, Chand Bagh, Wazirabad Road, Dehi",Delhi,Delhi,"Bir Singh, Raju",,9*1271*610,"Tata, DCM, Canter Available For Har., Delhi, Up & Raj. Spl. : All U.P.",Supplier,LCV,,,"407,  Canter",All Type Material
Choudhary Transport Co.,"4137, Naya Bazar, (Near OBC Bank)",Delhi,Delhi,Vikas,,"9211*92*22,  921**27011","Ser:- Narvana ,Tohana, Jakhal , Julana, Pb.",Booking,HCV,,,"Trailer,  10 Wheeler,  12 Wheeler",Parcel Service
Chaudhary Roadlines Pvt. Ltd.,"Zakhira Chara Mandi, Najafgarh Road, New Delhi-15",Delhi,Delhi,P. S. Chaudhary,"011 - 2*4*67**,  2*10*104,  2*449072,  6*122*00",921*4*22**,"Full Truck Available Fro Raj., Hr., Guj., Ms., T.Nadu & India Spl. Service M.P., Guj., Raj., Puna, Spl. Raj., Kolhapur, Sangli & All Mh.",Supplier,HCV,,,"Truck,  10 Wheeler,  12 Wheeler",All Type Material
Chouhan Freight Carriers,"Near Telephone Exchange , Vimal Compound, Delhi - U.P. Border, Ghaziabad",Delhi,Delhi,Avtar Chouhan,,991029*6**,"Spl:- Punjab ,Himanchal,& J&K","Supplier, Booking","HCV, LCV",chouh*nfreightc*rrier*@gm*il.com,,"10 Wheeler,  12 Wheeler,  709 ,  1109,  407 & 6 Wheeler",All Type Material
Chowdhary Transport Carriers,"Stall No.2, Old Rohtak Road, Kishan Ganj, Delhi",Delhi,Delhi,Pappu,"2*691990,  2*696*0*","9*110*6990,  **00669090",Full Load Truck Bengal ( Fleet Owner),"Supplier, Booking",HCV,,,10 Wheeler,Parcel Service
Chugh Roadways.,"AG-372, Sanjay Gandhi, Transport Nagar, Samaypur Badli, Delhi",Delhi,Delhi,Rajender Pal,011 -27**100*,"996*070241,  9*112*9*2*","Spl. Bombay, Chattishgarh",Supplier,HCV,,,10 Wheeler,Parcel Service
Mahalaxmi Roadways,"C-2/1, Near Delhi Dhram Kanta, Balli Market, Sanjay Gandhi Transport Nagar, Delhi -42",Delhi,Delhi,D. P. Puniya,"011 - 2*912629,  *2*69**0","9*101*64**,  9*911*64**",Sec- Parcel For Kolkata & Full For All India,Booking,HCV,,,"10 Wheeler,  12 Wheeler","All Type Material,  Parcel Service"
City Line Tempo Transport,"Flat No. 22, Pocket 3, E-Block, Sector - 18, Rohini",Delhi,Delhi,Pardeep,"011 - 6*1**17* ,  27***94*",9*11*67***,Spl Up. Uttaranchal,Supplier,LCV,,,"Canter,  407,  ,  707",Parcel Service
CLK Logistics (India),"D - 72 / 73, Rohit House , Vishwakarma Colony ,M.B. Road ,New Delhi - 44",Delhi,Delhi,Chaman Lal,011 - 26*6*19*,"9*11117*** ,  9*11117***",Spl. Carrying Heavy & ODC Consigment All Over India,Booking,HCV,clklogi*tic*@gm*il.com,,Trailer,ODC Consigment
Coastal Roadways Ltd.,"M.CD. Building D.B. Gupta Road, Paharganj,Delhi",Delhi,Delhi,K. V. Singh,"011 - *299242* ,  2***4269",,Full Load Booking All Over India,Booking,HCV,delhi@co**t*lro*dw*y*.com,www.coastalroadways.com,Container,Full Truck Load
Cotinental Roadways Pvt. Ltd.,"B-220, Naraina, Ring Road, New Delhi",Delhi,Delhi,Ram Awtar Aggarwal,"011 - 2*77**9* ,  2*779*67,  *2424717 ,  *269712","9*126**292 ,  9*111177** ,  9*124*94**",All Over India,Booking,"HCV, LCV",continent*.delhi@gm*il.com,,"Trailer,  707,  909,  1109,  407 & 6 Wheeler",All Type Material
Commercial Road Carrier,"84, Khanna Market, Tis Hazari, Deilhi - 54",Delhi,Delhi,K.K. Singhal,"011 - 2*91*717 ,  2*9*7774",9*11220**6,Full Load Booking For All Over India ODC Part Load Full Load For All Over India,Booking,"HCV, LCV",,,"Truck,  10 Wheeler,  6 Wheeler,  1110,  1109,  407",All Type Material
Continental Carriers Of India,"3, Sangam Tower, Savita Vihar, Delhi ( Monday At 12 AM) 92",Delhi,Delhi,R. D. Goyal,"011 - 22166**4 ,  221444*7 ,  221**200",9*1002*964,All Over India,Booking,HCV,,,"Trailer,  Container",ODC Consigment
Continental Transport Orgn. Pvt. Ltd.,"59, Khanna Market, Tis Hazari, Delhi",Delhi,Delhi,Deepak,"011 - 2*9**444 ,  2*9***96",9*1017791*,"Spl. In ODC Project Machineries Containers Import & Export, Cargo",Booking,"HCV, LCV",ctopl@gm*il.com,,"Trailer,  ODC Cargo,  10 Wheeler,  12 Wheeler,  707,  909,  1109,  407 & 6 Wheeler","All Type Material,  ODC Consigment"
Creasakthi SCM Limited,"910, 9th Floor , Vishvdeep Bulding , Jana kpuri , Delhi",Delhi,Delhi,D. K. Saxena,011 - 416190*0,9**0994*69,All Over India,Booking,"HCV, LCV",edc@cre***kthi.com,www.creasakthi.com,"Truck,  Container,  10 Wheeler,  12 Wheeler,  707,  909,  1109,  407 & 6 Wheeler",All Type Material
Crown Roadlines,"CW-292, Sanjay Gandhi Transport Nagar, New Delhi - 42",Delhi,Delhi,"Puneet Sharma, Sandeep Sharma",011 - 27***06*,"9*102***10,  9*102***10","Dehi To Mumbai, Mumbai To Delhi",Supplier,HCV,crownro*dline*@y*hoo.com,,"12 Wheeler,  Open Body",All Type Material
CTA Logistics Limited,"3-4 Ram Bagh, Bagichi Peerji, Delhi",Delhi,Delhi,S. R. Yadav,,"**00*9**20 ,  9*10*61***",Full Load Booking All Over India,"Supplier, Booking","HCV, LCV",,,"Truck,  10 Wheeler,  12 Wheeler,  Bulker",Bulk Carrier
CTO Carriers Ltd.,"101/2108 1st Floor, Bhanot Bhavan, Azadpur, Near Akash Cinema , Delhi",Delhi,Delhi,Subhash Mittal,"011 - 27679906 ,  27229907 ,  *2994722","9*112109*2,  9*112109*1",Full Load Booking All Over India,Booking,"HCV, LCV",c*rrier*@ct*group.com,www.ctagroup.com,"Truck,  Trailer,  Container,  10 Wheeler,  12 Wheeler,  707,  909,  1109,  407,  Canter",All Type Material
Cucku Transport Co. (R),"23/29, Cucku House, Mine G.T. Karnal Road, Libaspur, Delhi - 42",Delhi,Delhi,Kishor,"011 - 27**20*0 ,  27***0*0","9*1*7**7*7 ,  9*1*42007* ,  9*11*1007*",NCR & Local Delhi,Booking,HCV,pr*tik78.goy*l@y*hoo.com,,"Tempo,  10 Wheeler,  6 Wheeler",Food
D.D.R.C.(BNG),"AW-117, Sanjay Gandhi Transport Nagar, Delhi-42",Delhi,Delhi,Sukhdev Singh,"011 - 27**26*7,  27*****1,  27**299*",9*1017*144,Full - All Over India,Booking,HCV,*ukhdev.ddrc@gm*il.com,,"10 Wheeler,  12 Wheeler",All Type Material
D.H.R. Logistic (Regd.),"Plot No:- 404, Najafgarh Kapashera Road, Near Railways Xing Bijwasan, New Delhi",Delhi,Delhi,"Rajesh Sharma, Ajay Sharma",,"9*110**474,  9*91***77",All Over India,"Supplier, Booking",HCV,dhrp*cker*delhi@gm*il.com,www.dhrgroup.in,,
D.H.T.C. (India) Ltd.,"14, Community Centre, New Friends Colony, New Delhi",Delhi,Delhi,S. C. Sharma,"41629791,  41629792,  4162979*,  41629794,  2616*47",96*07749*6,Service - All Over India,"Supplier, Booking",HCV,upborder@dhtcindi*.com,www.dhtcindia.com,"Truck,  Container,  ODC Cargo",
D.M. Supreme TPT Co.,"38, TPT Centre, New Subzi Mandi, Azadpur, Delhi",Delhi,Delhi,Mohmd Idirish,"011 - *2*47449,  *0711769","9**0970*** ,  9*12*27941","Full Load Booking - Guj., Raj., Maha",Booking,HCV,,,,
D.N. Roadways Corp. Of India,"8922, Street No.-2, Multani Dhanda, Paharganj, New Delhi",Delhi,Delhi,"D.B.Singh, Pawan","011 - 2**4*442,  *299*442","9911440*7*,  9*1**20*7*",House Hold Goods & Full Load Booking For: All Over India,Booking,"HCV, LCV",p*w*n@dnro*dw*y*.com,www.dnroadways.com,,
D.R . Transport Corporation,"C-4/96 Swarn Park, Nangloi, New Delhi -41",Delhi,Delhi,Anil Kumar,,"9*1212612*,  921264612*,  9212662000,  99119*7700",Full Load / Part Load - All Over India,Booking,"HCV, LCV",drtc6123@gm*il.com,,"Tempo,  Truck,  Trailer,  Container,  ODC Cargo,  10 Wheeler,  12 Wheeler",All Type Material
D.R. Road lines,"Near Apsara Cinema, Gali No.1, P.O. Chikamberpur, UP Border, Ghaziabad",Delhi,Delhi,Rakesh,0120 - 47*27**,"9**01*17**,  9*1192*7**","Truck Available For Bihar, Bengal, Assam Spl. Assam",Supplier,HCV,,,"10 Wheeler,  12 Wheeler",All Type Material
D.R. Tempo Service,"WZ-45A, Phase-II, Om Vihar, Uttam Nagar, New Delhi",Delhi,Delhi,Rajan,,"9*1*211706,  9*10*91*49","Tata 407 & Canter Available For: Delhi U.P., Haryana & Punjab",Booking,"HCV, LCV",,,,
D.S. Roadlines (Regd.),"204 A, 2nd Floor, Sarai Pipal Thalia, Azadpur, Delhi",Delhi,Delhi,"Sanjay, Davinder",011 - *07114**,"92107276**,  92107276*2","Full Truck - (Daily Services - Muradabad, Rampur, Bareli) All Over India","Supplier, Booking","HCV, LCV",,,"Truck,  10 Wheeler,  12 Wheeler",All Type Material
D.S. Roadlines,"P.No:- 42111/1, Rani Kera Road, Mundka, Delhi",Delhi,Delhi,Anand,011 - 6**44416,"9*1**02412,  9*100*9*42",Full Load Services - All Over India,"Supplier, Booking","HCV, LCV",d*ro*dline*@gm*il.com,,,
D.S. Transport Corpn. (R),"BG- 132 Sanjay Gandhi Transport nagar, New Delhi",Delhi,Delhi,Jaswinder Singh,"011 - 27***214,  27**1*14",92121*0692,"Full & Part Booking For Noida, Ggn., Faridabad., Ludhiana, Delhi",Booking,"HCV, LCV",d*tr*n*@gm*il.com,,"Truck,  10 Wheeler,  12 Wheeler",All Type Material
Dainik Transport Service,"S.No. 426, Rani Khera Road, Mundka, Delhi-41",Delhi,Delhi,V. K. Bhardwaj,011-2**446*0,"9*6*067122,  9*71*97122","All Over India & Nepal, Bhutan, Bangladesh",Booking,"HCV, LCV",bh*rdw*jdt*@gm*il.com,,"Truck,  Trailer,  10 Wheeler,  12 Wheeler",All Type Material
Dalal Roadways,"Ghewra More, Main Rohtak Road, Mundka, Delhi-41",Delhi,Delhi,"Ravinder Dalal, Lalit Dalal",011 - 2***1*99,"9*11121*62,  9*7*749*9*",Spl. In: O.D.C. Truck & Trailor - All Over India,Supplier,HCV,,,"Trailer,  Container,  ODC Cargo",
Darbar Transport Corporation,"Opp Tele. Exch. U.P. Border P.O. Chikamberpur, Ghaziaba.",Delhi,Delhi,Bitto,"0120 - 262*09*,  26269**","9*7*217*7*,  9**07*0*67",Spl. Ser. Tamilnadu & Kerala,Supplier,"HCV, LCV",,,,
DARCL Logistics Limited,"17, Shivaji Marg, Najafgarh Road, New Delhi",Delhi,Delhi,Gulab Sharma,"011 - *2**2**1,  2*411*91",,Full Load -All Over India,Booking,HCV,co@d*rcl.com; ro@d*rcl.com; ho@d*rcl.com,www.darcl.com,,
Darshan Tempo Transport Service .,"Shop No. 17, Gur Mandir , Bus Stand, Delhi-.",Delhi,Delhi,Darshan,011 - 27244*6*,9*1111*104,"Matador ,Nissan. Tata , Mazda, &DCM Available. : (Spl. - Delhi,U.P., Hr., Pj., Rj.,)All Over India",Supplier,"HCV, LCV",,,,
Dart Road Carrier,"V.P.O. Tikri Kalan, Main Rohtak Road. Chara Mandi PVC Mkt. New Delhi-41",Delhi,Delhi,"R. B. Sharma, R. K. Sharma",,"94160*4162,  9**0971162,  9416271162",Full Load Booking All Over India,Booking,HCV,,,"10 Wheeler,  12 Wheeler",All Type Material
Dashmesh Transport Co.,"Shop No. 332, Sarai Pipal Thalla, Azadpur, Delhi",Delhi,Delhi,Rajender Singh,,"9*9109**0*,  9*6*261772,  7*299*4***,  9*4092242*",All Over India. (Spl. Chandigarh),Booking,"HCV, LCV",,,"Truck,  Trailer,  10 Wheeler,  12 Wheeler",All Type Material
Dasmesh Transport Co.,"Opp. Sarai Pipal Thalla, Sanjay Nagar, Delhi 33",Delhi,Delhi,Bablu,,"9*111*429*,  9*1047949*",Spl. In : Hyd.,Supplier,HCV,,,"10 Wheeler,  12 Wheeler",All Type Material
Data Goods Carrier,"7198, Main Qutab Road, New Delhi",Delhi,Delhi,Jitendra Singh,011 - 2**447**,"9*7*77*00*,  9*11*024**","Daily Parcel Booking For Agra, Kanpur, Etc.",Booking,HCV,,,"10 Wheeler,  6 Wheeler",
Data Jee Freight Carrier.,"AW-397, Sanjay Gandhi Transport, Nagar, Delhi -42",Delhi,Delhi,B.R. Sharma,011 - 42*6*2*2,"9212241**2,  9971006**2","Full Load - (Spl. Jammu, Shri Nagar, Punjab) Maha, Raj., Guj., South",Supplier,"HCV, LCV",,,,
Data Jee Golden Tpt. Co.,"CW-637, Sanjay Gandhi Transport Nagar, DelhiÂ·42",Delhi,Delhi,Nirmal Singh,011 - 27**2744,"9**0226*22,  9*10226*22","Truck Available For Punjab Spl. Service For Jallandhar, Ludhiana",Supplier,"HCV, LCV",,,,
Davender Trailer TPT. Co,"Jhajjar Road, Near Bijli Board Office, Delhi",Delhi,Delhi,Devender Joon,,"9*12*44**2,  9***12****,  9***42*7**",Full Truck Load Service All Over India,"Supplier, Booking","HCV, LCV",d*vender_tr*ilor*@y*hoo.co.in,,"Trailer,  12 Wheeler",All Type Material
Decant Freight Carriers Pvt. Ltd.,"Shop No. 4, Ambey Market, U.P. Border, Ghaziabad",Delhi,Delhi,M. K. Bansal,0120 - 4**9**1,"9*12924002,  9*1*407477",Full Load Booking For All Over India,Booking,"HCV, LCV",,,,
Deccan Queen Transport Company,"AG-414, Sanjay Gandhi Transport Nagar, New Delhi-42",Delhi,Delhi,S. S. Mehra,"011 - 27***9*9,  *2941100",9*106*4101,Parcel Booking Only - Spl. Delhi To Goa,Booking,"HCV, LCV",**mehr*69@rediffm*il.com,,"Truck,  10 Wheeler,  407, 709, 909, 11 09, 6 Wheeler",All Type Material
Decent Carriers,"BGÂ·117, Sanjay Gandi Transport Nagar, Delhi",Delhi,Delhi,"Parvinder Singh, Tejinder Singh","011 - 2*9**676,  27***2*2","9*1*40*4*4,  9*1*409494","Naya Bazar: Daily Service: Delhi To Agra,Delhi To Ludhiyana",Booking,"HCV, LCV",,,"Truck,  10 Wheeler,  6 Wheeler",All Type Material
Deep Freight Carriers,"BGÂ·535, Sanjay Gandhi Transport Nagar, Delhi-42",Delhi,Delhi,Jasbir Singh,011 - 27****27,"9*122*6027,  9*10******","Full Truck Available For Mumbai ,Hyd.",Supplier,HCV,deeptr*dingco27@y*hoo.com,,10 Wheeler,"All Type Material,  Pipes,  Tiles Etc"
Deep Freight Corp.,"BG 534, Sanjay Gandhi Transport Nagar, Delhi 42",Delhi,Delhi,"Surinder Singh, Gagandeep Singh",011 - 27***127,"9*1**61127,  9*100**127","Truck Available For Mumbai, Hyd.",Supplier,"HCV, LCV",dfcorp127@gm*il.com,,"10 Wheeler,  12 Wheeler",All Type Material
Deep Goods Carrier,"Nr. TelePhone exch. Yuvraj Complex, UP. Border P.O. Chikamberpur, Ghaziabad",Delhi,Delhi,Krishan Pal,"011 - 262242*,  262*170",99**629062,"Spl. Service For Assam Ser. U.P., Bihar, Bengal & Assam",Supplier,"HCV, LCV",,,,
Deep Road Carrier,"Shop No. 11, Plot 897, Near Om Dharam Kanta, Mundka, Delhi",Delhi,Delhi,Krishan,,"9*6***0649,  9*710*2*4*,  99**917*47",Truck DCM Canter Available For All Over India Spl. Ser. : Local Delhi,Supplier,"HCV, LCV",,,"Truck,  10 Wheeler,  407, 709, 909, 11 09, 6 Wheeler",All Type Material
Deepak Cargo Movers,"1 st Floor, Shop' No.10 , Lal Mkt. Bhopara Ghaziabad",Delhi,Delhi,"Hasan Singh, Raj Pal Punia",011 - 22**1760,"9*116*6162 ,  9*11626162","Full Truck Load, Tata & DCM Toyota, Canter Available For All Over India",Supplier,"HCV, LCV",,,,
Deepak Logistics,"202, Bhanod Plaza No. 1, 2nd Flor, D.B. Gupta Road, Paharganj, New Delhi",Delhi,Delhi,Chandiram Sharma,011 - *29**7*6,"9**009*074,  9**01*2720",Full/Parcel Load Booking All Over India,Booking,"HCV, LCV",delhi@deep*klogi*tic*.in,www.deepaklogistics.in,,
Deepak Logistics,"Shop No. 12, By Pass Road, Badarpur Border, New Delhi-44",Delhi,Delhi,Sumit Choudhary,011 - 29*921**,9*107*419*,Full / Part Load Booking All Over India,"Supplier, Booking","HCV, LCV",,,,
RAJASTHAN GUJRAT FREIGHT CARRIERS,"Vimal Compaund, UP Boorder , Near Telephone exchange, chiackamberpur, Ghaziabad",Delhi,Delhi,"Bishamber Dyal, Kailash Chand","0120 - 2626*20,  2621**0","9*1*0116**,  9*12222*77","Spl. - Raj., Guj.",Supplier,"HCV, LCV",,,,
Deepak Transport Agency,"BÂ·99 Backside, Subhadara Colony, Opp. Metro Piller No. 169-170, Near Nayantara Hospital, Delhi",Delhi,Delhi,Siya Ram,,"9*9904*79*,  96*41*0941,  9*7*071769","Delhi To Banglore ,Kanpur ,Banglore To Delhi",Booking,"HCV, LCV",,,,
Deepak Transport Corp.,"1/5526 Gali No. 16, Balbir Nagar Extn., Shadra, Delhi",Delhi,Delhi,Bajrang Lal Gupta,011 - 6*717*1*,"9*91470**6,  9911270**6",Full Load - All Over India,"Supplier, Booking","HCV, LCV",,,,
Deepika Roadways,"Rajdhani Tpt. Center, Rajiv Nagar, Libaspur",Delhi,Delhi,Billu Sharma,011 - 27**0071,"9210100971,  9*12*4027*,  927**7**1* ,  09212*4027*","Full Load Booking All Over India & Spl : M.P. , C. G. , Gujrat & Maharashtra",Booking,HCV,,,"Trailer,  60","All Type Material,  Car Carrier & Household"
Deepu Roadlines,"412, Chunna Bhatti Road, Opp. Bala Dharmkanta, Shaheed Nagar, Chikamberpur, UP. Border, Ghaziabad",Delhi,Delhi,"Om Prakash Rathod, Deepak Rathod",0120 - 2611299,"9**0***40*,  9990*4*4*0,  99902*1671,  99902*1674","Daily Service: 407, 709, 909, 1109, For U.P., Bihar, Jharkhand, West Bengal, Assam, Orissa, Nagaland, Tripura, Mizoram, Nepal &, Bhutan","Supplier, Booking",LCV,,,"Tempo,  Truck,  407,  709,  909,  1109,  14 Ft.,  17 Ft.,  19 Ft.,  6 Wheeler",All Type Material
Dehradun Shamli Goods Carrier,"Shop No.6, Vimal Compound U.P. Border Ghaziabad",Delhi,Delhi,Ankit Singh,"0120 - 26267*2,  41**7*2",9*104*2*14,"Full Truck For All Over India Spl. Muzafarnagar, Roorki, Haridawar, Uttaranchal",Supplier,"HCV, LCV",,,,
Delhi Ambala Goods Carrier,"4128, Naya Bazar, Delhi - 6",Delhi,Delhi,Ramesh,,"9*1117490* ,  9*107722** ,  99**772744","Daily Services For Samalakha, Panipat, Karnal, Ambala",Booking,"HCV, LCV",,,"10 Wheeler,  6 Wheelers",Parcel Services
